{"type":"FeatureCollection","features":[{"type":"Feature","properties":{"species":"Equisetum telmateia","commonName":"","locationName":"Above Hey Rake Farm","rarity":"","page":"31","locations":[],"common":false,"recordCount":3},"geometry":{"type":"MultiPolygon","coordinates":[[[[-2.114288659520031,53.73256183064735],[-2.110718951086816,53.73178383640963],[-2.108689853661619,53.73142817710549],[-2.1071680305927223,53.7337621363704],[-2.107586408805683,53.733897085749454],[-2.108523576002713,53.73408517460491],[-2.1126541088164013,53.7350402020097],[-2.113856536920221,53.734273367289234],[-2.114288659520031,53.73256183064735]]],[[[-2.063729381160402,53.73946864146366],[-2.0634219942245453,53.73912684400069],[-2.061565377131974,53.73900321444654],[-2.0593030092840716,53.738494147744774],[-2.059462850490717,53.738130524896945],[-2.0565365268613647,53.735999631774895],[-2.054765978110833,53.735599622729474],[-2.053585612277145,53.736072360283245],[-2.0527618152890503,53.7369232744817],[-2.054975001227215,53.73771599101296],[-2.0561307761060346,53.73832688162551],[-2.0587374173220963,53.739294106936256],[-2.0608399439633533,53.739403191100834],[-2.063729381160402,53.73946864146366]]],[[[-2.052467598214388,53.77391465733009],[-2.0505406855168515,53.77185449840744],[-2.046301477582272,53.77159567732327],[-2.0454431255624614,53.772040848599936],[-2.0448825691413597,53.77303470232164],[-2.0437964910754753,53.773686906038485],[-2.0436213171938817,53.77469107290046],[-2.045600782055896,53.77593330794053],[-2.052467598214388,53.77391465733009]]]]}},{"type":"Feature","properties":{"species":"Asplenium trichomanes","commonName":"","locationName":"High Greenwood Wood","rarity":"rare in locations","page":"34","locations":[],"common":false,"recordCount":8},"geometry":{"type":"MultiPolygon","coordinates":[[[[-2.2026600452998935,53.7561892287932],[-2.200164868749952,53.75247268356846],[-2.1945027373481607,53.74994751486207],[-2.1894164159194323,53.74535075075733],[-2.178571994760069,53.740867002536476],[-2.1682074152449253,53.73783026842493],[-2.163121093816197,53.74052644514901],[-2.175644960730329,53.74606016075162],[-2.184665983641658,53.75204710397232],[-2.198485422995183,53.75789135345012],[-2.2026600452998935,53.7561892287932]]],[[[-2.192364171063487,53.74361223375663],[-2.184716968946136,53.74125214585011],[-2.1828803046821434,53.740274497391006],[-2.1812773976881132,53.739454835196284],[-2.1795576120591025,53.738704287117706],[-2.178155068439326,53.73926719943323],[-2.178188462335035,53.73948446181913],[-2.1820621542372733,53.74093614075496],[-2.191512626722909,53.74454043285006],[-2.192364171063487,53.74361223375663]]],[[[-2.174754166680716,53.773903442308196],[-2.1731671006710926,53.77275553259509],[-2.1682164022231634,53.772545545714486],[-2.163952642794323,53.77255954487255],[-2.1600915717559865,53.7733714880515],[-2.1519193661840443,53.77493933388223],[-2.1484728273124,53.77433739999814],[-2.1484728273124,53.775345284418385],[-2.151694334436412,53.77596120187203],[-2.157331971903432,53.7751213121943],[-2.1633130788799977,53.77418341552495],[-2.1663924606897154,53.773511476667395],[-2.17139053424241,53.77475735478114],[-2.174754166680716,53.773903442308196]]],[[[-2.1671237524319893,53.768980433089425],[-2.166724003918245,53.7686260290736],[-2.1664933797757002,53.76822618505374],[-2.1660167565477746,53.768108048591834],[-2.166001381604938,53.76781724973088],[-2.1656323829768667,53.7675718866252],[-2.1656785078053753,53.767126594363425],[-2.1653402590629764,53.76689940261445],[-2.1652018845774506,53.76640866424095],[-2.1614350235825537,53.76658133210048],[-2.1593440313568153,53.76802626161576],[-2.1588366582432172,53.76967105796038],[-2.1656170080340305,53.77040710617109],[-2.1669700030036263,53.76962562246274],[-2.1671237524319893,53.768980433089425]]],[[[-2.1068467504220565,53.728787995831865],[-2.106619492100445,53.72856222425808],[-2.106400809564556,53.727905196713024],[-2.105757625635469,53.72765405219771],[-2.104072483741261,53.72790265990722],[-2.1035750881694337,53.72835674570453],[-2.1037980585981835,53.72930549014582],[-2.104672788741742,53.729660629616845],[-2.105135881170685,53.729343540946914],[-2.1068467504220565,53.728787995831865]]],[[[-2.0552431489834033,53.77897801009678],[-2.054520338551532,53.7772307058854],[-2.051957647020349,53.7772307058854],[-2.0497892157247337,53.776259949889],[-2.04775220450764,53.77641527235729],[-2.045836952793931,53.7758638803931],[-2.052467598214388,53.77391465733009],[-2.0505406855168515,53.77185449840744],[-2.046301477582272,53.77159567732327],[-2.045582319485152,53.77196865777981],[-2.0460437434868526,53.770823301361105],[-2.0469636840365073,53.770823301361105],[-2.0468979739972464,53.7681823894259],[-2.044729542701631,53.76499753936468],[-2.0434810519556703,53.761501694124924],[-2.0394070295214837,53.75909327587345],[-2.031981795084982,53.756917811635276],[-2.0275792224544897,53.755868886828765],[-2.020942508489121,53.75548038951195],[-2.018971207311288,53.75548038951195],[-2.0218624490387755,53.76212319899423],[-2.0246879807270024,53.76076364514541],[-2.0275792224544897,53.760647109910266],[-2.0302733340641934,53.76099671464552],[-2.030799014378282,53.761501694124924],[-2.0316532448886764,53.76126862742746],[-2.0359243974406462,53.76177360363708],[-2.039144189364439,53.763288495831645],[-2.040326970071139,53.76495869823871],[-2.039078479325178,53.7651917444556],[-2.0401955499926165,53.76845425567819],[-2.0409840704637494,53.770823301361105],[-2.0403926801103998,53.77202719137654],[-2.040326970071139,53.77435720300263],[-2.039144189364439,53.7747066935913],[-2.039341319482222,53.775405666038615],[-2.040261260031878,53.775793979035235],[-2.0382899588540453,53.7769588964697],[-2.0401955499926165,53.777036556482386],[-2.0421011411311873,53.77637644179411],[-2.046832263957985,53.77870621199745],[-2.0501834759603,53.779366290042226],[-2.0500520558817783,53.77820143942851],[-2.052089067098872,53.77847324079698],[-2.0552431489834033,53.77897801009678]],[[-2.0451962078722183,53.77567941294249],[-2.0451895129764583,53.77567748551347],[-2.045181144045016,53.77566995947132],[-2.0451962078722183,53.77567941294249]],[[-2.044927100007508,53.77295575011382],[-2.0448825691413597,53.77303470232164],[-2.044820661946663,53.77307187838085],[-2.044927100007508,53.77295575011382]],[[-2.0436882502642595,53.77430738572842],[-2.043685228563481,53.77432470732774],[-2.043678182073453,53.77431837053537],[-2.0436882502642595,53.77430738572842]]],[[[-2.0322470650055164,53.7490610562339],[-2.0304289631586427,53.747886409696726],[-2.0281226672973314,53.745098981403416],[-2.026220394068658,53.744143249132684],[-2.0237625897201066,53.74391426838154],[-2.0225841903749107,53.745079070536164],[-2.0252776745925014,53.74754794612515],[-2.0263550682795373,53.74892169310759],[-2.029503077958846,53.750882688869524],[-2.0317252024383583,53.75034516614289],[-2.0322470650055164,53.7490610562339]]]]}},{"type":"Feature","properties":{"species":"Osmunda regalis","commonName":"","locationName":"High Greenwood Wood","rarity":"now very rare","page":"36","locations":[],"common":false,"recordCount":2},"geometry":{"type":"MultiPolygon","coordinates":[[[[-2.110283891084257,53.681077842907186],[-2.107636108227648,53.67867642686021],[-2.1037195960855795,53.67393853792416],[-2.0964381932299037,53.67402023017913],[-2.0932939510876802,53.67547432581208],[-2.090591006088225,53.67728779048083],[-2.0921631271593366,53.6793135505839],[-2.094562680373139,53.678464050144015],[-2.0975138550154018,53.67856207029993],[-2.0992238814436286,53.67950958671387],[-2.1012372996575084,53.680996164338566],[-2.0991963003722054,53.68347912203888],[-2.10509864965673,53.68390382382634],[-2.110283891084257,53.681077842907186]]],[[[-2.052467598214388,53.77391465733009],[-2.0505406855168515,53.77185449840744],[-2.046301477582272,53.77159567732327],[-2.0454431255624614,53.772040848599936],[-2.0448825691413597,53.77303470232164],[-2.0437964910754753,53.773686906038485],[-2.0436213171938817,53.77469107290046],[-2.045600782055896,53.77593330794053],[-2.052467598214388,53.77391465733009]]]]}},{"type":"Feature","properties":{"species":"Gymnocarpium dryopteris","commonName":"","locationName":"Staups Clough","rarity":"","page":"31","locations":[],"common":false,"recordCount":4},"geometry":{"type":"MultiPolygon","coordinates":[[[[-2.2026600452998935,53.7561892287932],[-2.200164868749952,53.75247268356846],[-2.1945027373481607,53.74994751486207],[-2.1894164159194323,53.74535075075733],[-2.178571994760069,53.740867002536476],[-2.1682074152449253,53.73783026842493],[-2.163121093816197,53.74052644514901],[-2.175644960730329,53.74606016075162],[-2.184665983641658,53.75204710397232],[-2.198485422995183,53.75789135345012],[-2.2026600452998935,53.7561892287932]]],[[[-2.1714805410250433,53.725030822130456],[-2.171162341874832,53.7247831029285],[-2.1700737658346343,53.72500109590326],[-2.168549759378357,53.72557579923787],[-2.1682315602281457,53.72597214178873],[-2.166657311800783,53.72674499901759],[-2.1666238171533925,53.72782499365664],[-2.1645304016914735,53.72992545424247],[-2.1638102667725736,53.73065860917371],[-2.1662888706794856,53.73126295700348],[-2.1678798664305434,53.72922200978995],[-2.1678966137542393,53.728835605716256],[-2.1691526630313898,53.72725032106347],[-2.1698560506265943,53.726200037063805],[-2.1714805410250433,53.725030822130456]]],[[[-2.063729381160402,53.73946864146366],[-2.0634219942245453,53.73912684400069],[-2.061565377131974,53.73900321444654],[-2.0593030092840716,53.738494147744774],[-2.059462850490717,53.738130524896945],[-2.0565365268613647,53.735999631774895],[-2.054765978110833,53.735599622729474],[-2.053585612277145,53.736072360283245],[-2.0527618152890503,53.7369232744817],[-2.054975001227215,53.73771599101296],[-2.0561307761060346,53.73832688162551],[-2.0587374173220963,53.739294106936256],[-2.0608399439633533,53.739403191100834],[-2.063729381160402,53.73946864146366]]],[[[-2.0552431489834033,53.77897801009678],[-2.054520338551532,53.7772307058854],[-2.051957647020349,53.7772307058854],[-2.0497892157247337,53.776259949889],[-2.04775220450764,53.77641527235729],[-2.0451895129764583,53.77567748551347],[-2.043678182073453,53.77431837053537],[-2.0453866430942416,53.77245436985697],[-2.0460437434868526,53.770823301361105],[-2.0469636840365073,53.770823301361105],[-2.0468979739972464,53.7681823894259],[-2.044729542701631,53.76499753936468],[-2.0434810519556703,53.761501694124924],[-2.0394070295214837,53.75909327587345],[-2.031981795084982,53.756917811635276],[-2.0275792224544897,53.755868886828765],[-2.020942508489121,53.75548038951195],[-2.018971207311288,53.75548038951195],[-2.0218624490387755,53.76212319899423],[-2.0246879807270024,53.76076364514541],[-2.0275792224544897,53.760647109910266],[-2.0302733340641934,53.76099671464552],[-2.030799014378282,53.761501694124924],[-2.0316532448886764,53.76126862742746],[-2.0359243974406462,53.76177360363708],[-2.039144189364439,53.763288495831645],[-2.040326970071139,53.76495869823871],[-2.039078479325178,53.7651917444556],[-2.0401955499926165,53.76845425567819],[-2.0409840704637494,53.770823301361105],[-2.0403926801103998,53.77202719137654],[-2.040326970071139,53.77435720300263],[-2.039144189364439,53.7747066935913],[-2.039341319482222,53.775405666038615],[-2.040261260031878,53.775793979035235],[-2.0382899588540453,53.7769588964697],[-2.0401955499926165,53.777036556482386],[-2.0421011411311873,53.77637644179411],[-2.046832263957985,53.77870621199745],[-2.0501834759603,53.779366290042226],[-2.0500520558817783,53.77820143942851],[-2.052089067098872,53.77847324079698],[-2.0552431489834033,53.77897801009678]]]]}},{"type":"Feature","properties":{"species":"Asplenium scolopendrium","commonName":"","locationName":"Staup's Clough","rarity":"rare","page":"34","locations":[],"common":false,"recordCount":5},"geometry":{"type":"MultiPolygon","coordinates":[[[[-2.174754166680716,53.773903442308196],[-2.1731671006710926,53.77275553259509],[-2.1682164022231634,53.772545545714486],[-2.163952642794323,53.77255954487255],[-2.1600915717559865,53.7733714880515],[-2.1519193661840443,53.77493933388223],[-2.1484728273124,53.77433739999814],[-2.1484728273124,53.775345284418385],[-2.151694334436412,53.77596120187203],[-2.157331971903432,53.7751213121943],[-2.1633130788799977,53.77418341552495],[-2.1663924606897154,53.773511476667395],[-2.17139053424241,53.77475735478114],[-2.174754166680716,53.773903442308196]]],[[[-2.1164125705951826,53.72763278315276],[-2.115437078785197,53.726264150683996],[-2.1143779733914996,53.726264150683996],[-2.1147960413100644,53.72863861716765],[-2.1141271326403603,53.731886802027404],[-2.1133188679978017,53.73394770289233],[-2.1122040202149615,53.73492041300144],[-2.112817186495524,53.73525014013349],[-2.114294359807787,53.73440933083522],[-2.1151304956449164,53.73274414906036],[-2.1159387602874755,53.73093050970887],[-2.1163289570114694,53.72933114463312],[-2.1164125705951826,53.72763278315276]]],[[[-2.0963394249307603,53.7195821805996],[-2.095595047848198,53.719407652018106],[-2.094906850168093,53.72034677346772],[-2.094977074421165,53.72088696657097],[-2.0943029215916744,53.722224953457],[-2.0935304548078837,53.72300611866483],[-2.092378777057504,53.72437727782266],[-2.093207423243753,53.72460164506466],[-2.094190562786759,53.7235047271679],[-2.095047298674237,53.72226650516325],[-2.0957635860555706,53.72099500435899],[-2.0961568418727734,53.72070413275894],[-2.0961287521715444,53.72010576199863],[-2.0963394249307603,53.7195821805996]]],[[[-2.063729381160402,53.73946864146366],[-2.0634219942245453,53.73912684400069],[-2.061565377131974,53.73900321444654],[-2.0593030092840716,53.738494147744774],[-2.059462850490717,53.738130524896945],[-2.0565365268613647,53.735999631774895],[-2.054765978110833,53.735599622729474],[-2.053585612277145,53.736072360283245],[-2.0527618152890503,53.7369232744817],[-2.054975001227215,53.73771599101296],[-2.0561307761060346,53.73832688162551],[-2.0587374173220963,53.739294106936256],[-2.0608399439633533,53.739403191100834],[-2.063729381160402,53.73946864146366]]],[[[-2.0552431489834033,53.77897801009678],[-2.054520338551532,53.7772307058854],[-2.051957647020349,53.7772307058854],[-2.0497892157247337,53.776259949889],[-2.04775220450764,53.77641527235729],[-2.0451895129764583,53.77567748551347],[-2.043678182073453,53.77431837053537],[-2.0453866430942416,53.77245436985697],[-2.0460437434868526,53.770823301361105],[-2.0469636840365073,53.770823301361105],[-2.0468979739972464,53.7681823894259],[-2.044729542701631,53.76499753936468],[-2.0434810519556703,53.761501694124924],[-2.0394070295214837,53.75909327587345],[-2.031981795084982,53.756917811635276],[-2.0275792224544897,53.755868886828765],[-2.020942508489121,53.75548038951195],[-2.018971207311288,53.75548038951195],[-2.0218624490387755,53.76212319899423],[-2.0246879807270024,53.76076364514541],[-2.0275792224544897,53.760647109910266],[-2.0302733340641934,53.76099671464552],[-2.030799014378282,53.761501694124924],[-2.0316532448886764,53.76126862742746],[-2.0359243974406462,53.76177360363708],[-2.039144189364439,53.763288495831645],[-2.040326970071139,53.76495869823871],[-2.039078479325178,53.7651917444556],[-2.0401955499926165,53.76845425567819],[-2.0409840704637494,53.770823301361105],[-2.0403926801103998,53.77202719137654],[-2.040326970071139,53.77435720300263],[-2.039144189364439,53.7747066935913],[-2.039341319482222,53.775405666038615],[-2.040261260031878,53.775793979035235],[-2.0382899588540453,53.7769588964697],[-2.0401955499926165,53.777036556482386],[-2.0421011411311873,53.77637644179411],[-2.046832263957985,53.77870621199745],[-2.0501834759603,53.779366290042226],[-2.0500520558817783,53.77820143942851],[-2.052089067098872,53.77847324079698],[-2.0552431489834033,53.77897801009678]]]]}},{"type":"Feature","geometry":{"type":"Polygon","coordinates":[[[-2.1656170080340305,53.77040710617109],[-2.1588366582432172,53.76967105796038],[-2.1593440313568153,53.76802626161576],[-2.1614350235825537,53.76658133210048],[-2.1652018845774506,53.76640866424095],[-2.1653402590629764,53.76689940261445],[-2.1656785078053753,53.767126594363425],[-2.1656323829768667,53.7675718866252],[-2.166001381604938,53.76781724973088],[-2.1660167565477746,53.768108048591834],[-2.1664933797757002,53.76822618505374],[-2.166724003918245,53.7686260290736],[-2.1671237524319893,53.768980433089425],[-2.1669700030036263,53.76962562246274],[-2.1656170080340305,53.77040710617109]]]},"properties":{"species":"Equisetum palustre","commonName":"","locationName":"Shedding","rarity":"","page":"31","locations":[],"common":false,"recordCount":1}},{"type":"Feature","properties":{"species":"Asplenium adiantum-nigrum","commonName":"","locationName":"Shedding","rarity":"now rare","page":"34","locations":[],"common":false,"recordCount":4},"geometry":{"type":"MultiPolygon","coordinates":[[[[-2.192364171063487,53.74361223375663],[-2.184716968946136,53.74125214585011],[-2.1828803046821434,53.740274497391006],[-2.1812773976881132,53.739454835196284],[-2.1795576120591025,53.738704287117706],[-2.178155068439326,53.73926719943323],[-2.178188462335035,53.73948446181913],[-2.1820621542372733,53.74093614075496],[-2.191512626722909,53.74454043285006],[-2.192364171063487,53.74361223375663]]],[[[-2.1671237524319893,53.768980433089425],[-2.166724003918245,53.7686260290736],[-2.1664933797757002,53.76822618505374],[-2.1660167565477746,53.768108048591834],[-2.166001381604938,53.76781724973088],[-2.1656323829768667,53.7675718866252],[-2.1656785078053753,53.767126594363425],[-2.1653402590629764,53.76689940261445],[-2.1652018845774506,53.76640866424095],[-2.1614350235825537,53.76658133210048],[-2.1593440313568153,53.76802626161576],[-2.1588366582432172,53.76967105796038],[-2.1656170080340305,53.77040710617109],[-2.1669700030036263,53.76962562246274],[-2.1671237524319893,53.768980433089425]]],[[[-2.1068467504220565,53.728787995831865],[-2.106619492100445,53.72856222425808],[-2.106400809564556,53.727905196713024],[-2.105757625635469,53.72765405219771],[-2.104072483741261,53.72790265990722],[-2.1035750881694337,53.72835674570453],[-2.1037980585981835,53.72930549014582],[-2.104672788741742,53.729660629616845],[-2.105135881170685,53.729343540946914],[-2.1068467504220565,53.728787995831865]]],[[[-1.9879649164183484,53.74396465053195],[-1.986909083943321,53.74279073653433],[-1.9840583362607465,53.74286566819487],[-1.9824112375997036,53.742828202381304],[-1.9803418059486493,53.74336520918384],[-1.9820733712076946,53.74545072866192],[-1.9858532514682932,53.746374817970626],[-1.9869724338918227,53.7453882894621],[-1.9879649164183484,53.74396465053195]]]]}},{"type":"Feature","properties":{"species":"Chara vulgaris","commonName":"","locationName":"Shedding","rarity":"","page":"36","locations":[],"common":false,"recordCount":2},"geometry":{"type":"MultiPolygon","coordinates":[[[[-2.185409404934937,53.74798415472206],[-2.1843482613894287,53.74590775974468],[-2.182734978112924,53.74528533143245],[-2.1816134442843387,53.74572919518841],[-2.182959284878642,53.746780164237265],[-2.184727857454489,53.748142303450905],[-2.185409404934937,53.74798415472206]]],[[[-2.1671237524319893,53.768980433089425],[-2.166724003918245,53.7686260290736],[-2.1664933797757002,53.76822618505374],[-2.1660167565477746,53.768108048591834],[-2.166001381604938,53.76781724973088],[-2.1656323829768667,53.7675718866252],[-2.1656785078053753,53.767126594363425],[-2.1653402590629764,53.76689940261445],[-2.1652018845774506,53.76640866424095],[-2.1614350235825537,53.76658133210048],[-2.1593440313568153,53.76802626161576],[-2.1588366582432172,53.76967105796038],[-2.1656170080340305,53.77040710617109],[-2.1669700030036263,53.76962562246274],[-2.1671237524319893,53.768980433089425]]]]}},{"type":"Feature","properties":{"species":"Cryptogramma crispa","commonName":"","locationName":"Scarth-rake, Cliviger.","rarity":"","page":"31","locations":[],"common":false,"recordCount":4},"geometry":{"type":"MultiPolygon","coordinates":[[[[-2.1897937836701624,53.72976444104305],[-2.1875666867197423,53.72926556441502],[-2.1855774350747064,53.72900972795054],[-2.1858801472815594,53.728600386369266],[-2.186226104089392,53.72845967428024],[-2.184323341646314,53.728293377567866],[-2.1837179172326078,53.727986366524654],[-2.183307093523307,53.72796078216988],[-2.1818367770900196,53.72692460271771],[-2.1786799212185493,53.727257206312316],[-2.180669172863585,53.72868993018071],[-2.1820313777944254,53.72925277262878],[-2.1836314280306497,53.72982839915698],[-2.1845179423507197,53.73039122636414],[-2.188301844936386,53.731427320383546],[-2.1897937836701624,53.72976444104305]]],[[[-2.1758213755983955,53.73905979246797],[-2.1698018843751403,53.73675001523209],[-2.16884053244514,53.737461795210976],[-2.1698322347510564,53.73671411095709],[-2.170580877356973,53.73595412994141],[-2.171997228233033,53.73520610371226],[-2.172664936503176,53.735134292493974],[-2.1737575500361364,53.73537366274457],[-2.1739093019157143,53.7350983868388],[-2.171987111441062,53.73479917185301],[-2.1700345705904933,53.735541221108925],[-2.1683956502910524,53.735648936847575],[-2.1677785259807694,53.73612767012413],[-2.1666150949040057,53.73666623854276],[-2.166483576608372,53.73754588545259],[-2.166301474352878,53.73809640340401],[-2.1668680147033026,53.738964052928125],[-2.1671108177106264,53.738150258033784],[-2.1676166573092193,53.737970742332834],[-2.168384008546261,53.73779980313602],[-2.168355183123165,53.73782114532966],[-2.1751334337443087,53.73969406141089],[-2.1758213755983955,53.73905979246797]]],[[[-2.175249529613559,53.795369039138464],[-2.174356615134832,53.794764054629375],[-2.1725445239868266,53.794616685286194],[-2.1719536246994338,53.795624991496084],[-2.1731616854647706,53.79609035541722],[-2.1745667126592374,53.79579562553339],[-2.175249529613559,53.795369039138464]]]]}},{"type":"Feature","properties":{"species":"Huperzia selago","commonName":"","locationName":"Scarthrake, Cliveger","rarity":"very rare","page":"36","locations":[],"common":false,"recordCount":2},"geometry":{"type":"MultiPolygon","coordinates":[[[[-2.1758213755983955,53.73905979246797],[-2.1698018843751403,53.73675001523209],[-2.168355183123165,53.73782114532966],[-2.1751334337443087,53.73969406141089],[-2.1758213755983955,53.73905979246797]]],[[[-2.132964725787695,53.749476513618326],[-2.1280770011658543,53.74606385592975],[-2.1195970933882027,53.744043989170734],[-2.1181248871768052,53.74202402531407],[-2.1116471798466545,53.73847143954875],[-2.108584990926947,53.73714785042318],[-2.110292750132168,53.73477921848106],[-2.107348337709373,53.73390836435675],[-2.106700566976358,53.73509272154919],[-2.0955706880181904,53.733803860649445],[-2.095099582030543,53.73509272154919],[-2.0975728884656912,53.73544105554923],[-2.0953940232728225,53.7373220092685],[-2.103285048565915,53.741536433283876],[-2.1078783319454764,53.73927253903346],[-2.1083494379331236,53.74108366419009],[-2.111293850355919,53.74129263514723],[-2.111529403349743,53.744043989170734],[-2.105640578504152,53.74442707481036],[-2.1041094840442978,53.74578525939083],[-2.101165071621502,53.74540218613361],[-2.097396223720324,53.750207761345294],[-2.0952173585274547,53.75355044601091],[-2.0993395359193685,53.75748472361831],[-2.107112784715549,53.75713657232122],[-2.114297151027171,53.75727583318636],[-2.1260159124698976,53.75706694171549],[-2.129372542631884,53.75445571066766],[-2.132964725787695,53.749476513618326]]]]}},{"type":"Feature","properties":{"species":"Dryopteris oreades","commonName":"","locationName":"Ratton Clough, Cliviger","rarity":"","page":"32","locations":[],"common":false,"recordCount":2},"geometry":{"type":"MultiPolygon","coordinates":[[[[-2.192364171063487,53.74361223375663],[-2.184716968946136,53.74125214585011],[-2.1828803046821434,53.740274497391006],[-2.1812773976881132,53.739454835196284],[-2.1795576120591025,53.738704287117706],[-2.178155068439326,53.73926719943323],[-2.178188462335035,53.73948446181913],[-2.1820621542372733,53.74093614075496],[-2.191512626722909,53.74454043285006],[-2.192364171063487,53.74361223375663]]],[[[-2.1739093019157143,53.7350983868388],[-2.171987111441062,53.73479917185301],[-2.1700345705904933,53.735541221108925],[-2.1683956502910524,53.735648936847575],[-2.1677785259807694,53.73612767012413],[-2.1666150949040057,53.73666623854276],[-2.166483576608372,53.73754588545259],[-2.166301474352878,53.73809640340401],[-2.1668680147033026,53.738964052928125],[-2.1671108177106264,53.738150258033784],[-2.1676166573092193,53.737970742332834],[-2.1683956502910524,53.737797209759734],[-2.1698322347510564,53.73671411095709],[-2.170580877356973,53.73595412994141],[-2.171997228233033,53.73520610371226],[-2.172664936503176,53.735134292493974],[-2.1737575500361364,53.73537366274457],[-2.1739093019157143,53.7350983868388]]]]}},{"type":"Feature","properties":{"species":"Phegopteris connectilis","commonName":"","locationName":"Greenhurst-hey Clough","rarity":"","page":"31","locations":[],"common":false,"recordCount":7},"geometry":{"type":"MultiPolygon","coordinates":[[[[-2.192364171063487,53.74361223375663],[-2.184716968946136,53.74125214585011],[-2.1828803046821434,53.740274497391006],[-2.1812773976881132,53.739454835196284],[-2.1795576120591025,53.738704287117706],[-2.178155068439326,53.73926719943323],[-2.178188462335035,53.73948446181913],[-2.1820621542372733,53.74093614075496],[-2.191512626722909,53.74454043285006],[-2.192364171063487,53.74361223375663]]],[[[-2.1714805410250433,53.725030822130456],[-2.171162341874832,53.7247831029285],[-2.1700737658346343,53.72500109590326],[-2.168549759378357,53.72557579923787],[-2.1682315602281457,53.72597214178873],[-2.166657311800783,53.72674499901759],[-2.1666238171533925,53.72782499365664],[-2.1645304016914735,53.72992545424247],[-2.1638102667725736,53.73065860917371],[-2.1662888706794856,53.73126295700348],[-2.1678798664305434,53.72922200978995],[-2.1678966137542393,53.728835605716256],[-2.1691526630313898,53.72725032106347],[-2.1698560506265943,53.726200037063805],[-2.1714805410250433,53.725030822130456]]],[[[-2.166755043896422,53.71357124711351],[-2.162696299650944,53.71311937291193],[-2.161772031159399,53.71212047587392],[-2.1589992256847665,53.710883713346114],[-2.154217140880689,53.70959934454623],[-2.1524087894841895,53.709171212899825],[-2.1501182110486226,53.709242568476746],[-2.1453562190378395,53.71055073260733],[-2.1397704225019845,53.71033667216932],[-2.1362340908821618,53.71014639531008],[-2.1304473664133625,53.70936149416941],[-2.125785838369051,53.70907607194232],[-2.125223240156807,53.708410079215824],[-2.1215261661906295,53.70634067740687],[-2.1170655660792628,53.70550813072919],[-2.1097116037334964,53.703819199725366],[-2.1076621388174632,53.70450905297246],[-2.10742102529793,53.70524646979989],[-2.114704662867166,53.7056449073856],[-2.117276540408855,53.70669153143021],[-2.1217773261068102,53.707072115537486],[-2.12528351853669,53.70962312950997],[-2.1280965095979125,53.70983719357842],[-2.1304674592066566,53.710312887608985],[-2.137821421552423,53.711073986870716],[-2.1451351983116007,53.71116912331032],[-2.1513639642328775,53.709646914460244],[-2.1529312021098437,53.710075041265995],[-2.1565479049028444,53.71145453133832],[-2.1601646076958443,53.71207290875667],[-2.1618925879191666,53.71376150848312],[-2.1663933736171215,53.71433228742879],[-2.166755043896422,53.71357124711351]]],[[[-2.150734919432264,53.749515195044104],[-2.149108132061481,53.74599957195869],[-2.148132059639011,53.74554479325614],[-2.147658812403874,53.74321834828556],[-2.147155987216541,53.74013954640896],[-2.146386960459444,53.73970219830111],[-2.145884135272111,53.740489421618335],[-2.1462686486506595,53.743200855730244],[-2.146446116363836,53.74388305999199],[-2.147008097455561,53.744880107836465],[-2.1477179683082666,53.74692660560854],[-2.149048976157089,53.74729391517058],[-2.1498475808663824,53.74962013449511],[-2.150734919432264,53.749515195044104]]],[[[-2.11648021596286,53.724426307620675],[-2.11576799598899,53.72402921835302],[-2.116124105975925,53.723705061068884],[-2.1155762444575625,53.723194508279285],[-2.1163432505832698,53.72266774096763],[-2.1153570998502182,53.72187352546998],[-2.1150420794771603,53.721290010648275],[-2.114822934869815,53.72073890588249],[-2.1152612240845046,53.72032557256883],[-2.1155351548436863,53.71990413049786],[-2.1144531283449206,53.72026884022834],[-2.1140833218200266,53.72012295671568],[-2.11404223220615,53.71979876932026],[-2.1132204399286065,53.71920712088184],[-2.1130560814730983,53.718469574872685],[-2.1115083726837263,53.7190369191046],[-2.111686427677194,53.71943405551341],[-2.1115905519114806,53.71959615092912],[-2.1127547576379992,53.72060923312336],[-2.1127547576379992,53.72124948848502],[-2.1122479857335144,53.722416511156624],[-2.112521916492695,53.72305673900421],[-2.112138413429842,53.723364693231225],[-2.112398647651064,53.72345383745499],[-2.1135080672257467,53.72289465692624],[-2.1131108676249344,53.72256238671348],[-2.1131245641628937,53.72191404703196],[-2.1138504806747225,53.72163039527821],[-2.1140285356681905,53.722367885858546],[-2.1146037902624704,53.72279740737964],[-2.114494217958798,53.723153987951115],[-2.1142065906616585,53.72316209201986],[-2.11404223220615,53.7234133173767],[-2.1140011425922722,53.723705061068884],[-2.11404223220615,53.72405353004859],[-2.116096712900007,53.72518806020907],[-2.11648021596286,53.724426307620675]]],[[[-2.092012747435774,53.73072175485938],[-2.0913305092234675,53.7304478831254],[-2.091046243301673,53.73010193733231],[-2.091265534155629,53.7297800129956],[-2.0911518277869106,53.72910252238378],[-2.0913467529904275,53.728996813644144],[-2.0908107086807584,53.72854034103482],[-2.0907944649137984,53.72795412683595],[-2.0905017975248263,53.72808065776834],[-2.0903667202683796,53.728486886082706],[-2.0909295421702407,53.72897302300485],[-2.090783208475757,53.73029821702643],[-2.091064619426688,53.730617855562784],[-2.091582287611343,53.73113496146741],[-2.091314265456508,53.73078902132814],[-2.0914523374756655,53.730678512072615],[-2.0917772128148586,53.73082265452216],[-2.092012747435774,53.73082265452216],[-2.092012747435774,53.73072175485938]]],[[[-2.0552431489834033,53.77897801009678],[-2.054520338551532,53.7772307058854],[-2.051957647020349,53.7772307058854],[-2.0497892157247337,53.776259949889],[-2.04775220450764,53.77641527235729],[-2.0451895129764583,53.77567748551347],[-2.043678182073453,53.77431837053537],[-2.0453866430942416,53.77245436985697],[-2.0460437434868526,53.770823301361105],[-2.0469636840365073,53.770823301361105],[-2.0468979739972464,53.7681823894259],[-2.044729542701631,53.76499753936468],[-2.0434810519556703,53.761501694124924],[-2.0394070295214837,53.75909327587345],[-2.031981795084982,53.756917811635276],[-2.0275792224544897,53.755868886828765],[-2.020942508489121,53.75548038951195],[-2.018971207311288,53.75548038951195],[-2.0218624490387755,53.76212319899423],[-2.0246879807270024,53.76076364514541],[-2.0275792224544897,53.760647109910266],[-2.0302733340641934,53.76099671464552],[-2.030799014378282,53.761501694124924],[-2.0316532448886764,53.76126862742746],[-2.0359243974406462,53.76177360363708],[-2.039144189364439,53.763288495831645],[-2.040326970071139,53.76495869823871],[-2.039078479325178,53.7651917444556],[-2.0401955499926165,53.76845425567819],[-2.0409840704637494,53.770823301361105],[-2.0403926801103998,53.77202719137654],[-2.040326970071139,53.77435720300263],[-2.039144189364439,53.7747066935913],[-2.039341319482222,53.775405666038615],[-2.040261260031878,53.775793979035235],[-2.0382899588540453,53.7769588964697],[-2.0401955499926165,53.777036556482386],[-2.0421011411311873,53.77637644179411],[-2.046832263957985,53.77870621199745],[-2.0501834759603,53.779366290042226],[-2.0500520558817783,53.77820143942851],[-2.052089067098872,53.77847324079698],[-2.0552431489834033,53.77897801009678]]]]}},{"type":"Feature","properties":{"species":"Polystichum aculeatum","commonName":"","locationName":"Hebden Valley","rarity":"","page":"33","locations":[],"common":false,"recordCount":7},"geometry":{"type":"MultiPolygon","coordinates":[[[[-2.1725368273092016,53.7715226264775],[-2.1711345785055034,53.77133137871864],[-2.170422667574395,53.771114630205304],[-2.1693440146484737,53.771382378206205],[-2.1683948000736626,53.770897880572804],[-2.1674240124403337,53.77003087085131],[-2.1670788435040387,53.76839880397494],[-2.1661943481047827,53.76767200377586],[-2.1657197408173774,53.76638413392683],[-2.164597941774419,53.76554253426734],[-2.162915243209981,53.76436936720107],[-2.1623543436885018,53.764777429028904],[-2.1645332225988634,53.76634587976282],[-2.1652451335299716,53.76804178088802],[-2.1664532248070034,53.7690235870714],[-2.166474797865522,53.77020937431662],[-2.1674887316158884,53.77117837988421],[-2.1684810923077364,53.77185412052881],[-2.1697323297018056,53.772007116900355],[-2.1724289620166095,53.77204536590611],[-2.1725368273092016,53.7715226264775]]],[[[-2.1714805410250433,53.725030822130456],[-2.171162341874832,53.7247831029285],[-2.1700737658346343,53.72500109590326],[-2.168549759378357,53.72557579923787],[-2.1682315602281457,53.72597214178873],[-2.166657311800783,53.72674499901759],[-2.1666238171533925,53.72782499365664],[-2.1645304016914735,53.72992545424247],[-2.1638102667725736,53.73065860917371],[-2.1662888706794856,53.73126295700348],[-2.1678798664305434,53.72922200978995],[-2.1678966137542393,53.728835605716256],[-2.1691526630313898,53.72725032106347],[-2.1698560506265943,53.726200037063805],[-2.1714805410250433,53.725030822130456]]],[[[-2.1338988575818707,53.68653521369847],[-2.132932580454019,53.685962978022005],[-2.127049657940336,53.68808357712818],[-2.123383488837607,53.68912700732581],[-2.119319440917526,53.690052609245015],[-2.1153974925750703,53.689177495227895],[-2.1113618645705152,53.688100406852676],[-2.10761043572121,53.68732623256423],[-2.1036600674632293,53.68762917202444],[-2.101528573798852,53.68853797732811],[-2.1024664310111785,53.68959822539101],[-2.1048821238308064,53.688319192658795],[-2.10789463487646,53.68806674739698],[-2.1092303709061375,53.68870627245401],[-2.1130954794175425,53.68956456713267],[-2.1156248518992706,53.690086267113216],[-2.1197741595659267,53.690894047877805],[-2.123781367654957,53.689631883622425],[-2.1267086189540363,53.689059690028834],[-2.1338988575818707,53.68653521369847]]],[[[-2.1201927133329734,53.72106767172357],[-2.119579686818411,53.72088025662782],[-2.118782752349479,53.72132158761777],[-2.117505613777473,53.721430408245986],[-2.116780199068573,53.721575501978904],[-2.116013915925369,53.72219214475918],[-2.1156256657994796,53.72247023560372],[-2.11435874433605,53.72271809763258],[-2.1141237508388,53.722984094282275],[-2.1153804551936544,53.72279064234026],[-2.1162591265311943,53.72258509867678],[-2.116780199068573,53.72204100765933],[-2.1177814757090263,53.72156341085362],[-2.119283390669705,53.72141831707897],[-2.1201927133329734,53.72106767172357]]],[[[-2.1092369686725085,53.72783195885264],[-2.1088941806620385,53.72783564613972],[-2.1079593042698477,53.728307616217144],[-2.1073921459252514,53.72835923762294],[-2.1066380123022177,53.72858784594387],[-2.106868615145625,53.7288053914176],[-2.105609648270807,53.729074556293234],[-2.105023792398368,53.72942114962238],[-2.1052294652046495,53.729587070949464],[-2.1056657408543393,53.72921835600001],[-2.1063450843659974,53.72910774088461],[-2.107859584121347,53.728716898479355],[-2.108283394752474,53.7285435992691],[-2.108757065457851,53.72818593693845],[-2.109199573616821,53.72813062805898],[-2.1092369686725085,53.72783195885264]]],[[[-2.096436756246486,53.72146950056118],[-2.095311431583588,53.72133632692135],[-2.0955114893014364,53.72217235445178],[-2.0955490001235337,53.72250528114209],[-2.0952489135467602,53.7234226654953],[-2.0945237043195593,53.72364461031607],[-2.094286135779614,53.72446579596763],[-2.093098293079889,53.72425865154993],[-2.0930857894725228,53.723748184164904],[-2.0922605513863983,53.72353363805211],[-2.092210536956936,53.72254967116832],[-2.0915728529812934,53.72280861205414],[-2.0906850968583406,53.72260145947305],[-2.0905600607846857,53.72311194077825],[-2.0917729106991416,53.7244583979703],[-2.092585645177902,53.72530176128469],[-2.094398668245904,53.72552369618771],[-2.0952489135467602,53.72648540056481],[-2.0957615614487475,53.726152505384974],[-2.095186395509933,53.724924469261275],[-2.096211691313907,53.72417727310663],[-2.0952864243688567,53.72379997099363],[-2.0961366696697135,53.72295657755875],[-2.0960616480255205,53.72210576879744],[-2.096436756246486,53.72146950056118]]],[[[-2.0552431489834033,53.77897801009678],[-2.054520338551532,53.7772307058854],[-2.051957647020349,53.7772307058854],[-2.0497892157247337,53.776259949889],[-2.04775220450764,53.77641527235729],[-2.0451895129764583,53.77567748551347],[-2.043678182073453,53.77431837053537],[-2.0453866430942416,53.77245436985697],[-2.0460437434868526,53.770823301361105],[-2.0469636840365073,53.770823301361105],[-2.0468979739972464,53.7681823894259],[-2.044729542701631,53.76499753936468],[-2.0434810519556703,53.761501694124924],[-2.0394070295214837,53.75909327587345],[-2.031981795084982,53.756917811635276],[-2.0275792224544897,53.755868886828765],[-2.020942508489121,53.75548038951195],[-2.018971207311288,53.75548038951195],[-2.0218624490387755,53.76212319899423],[-2.0246879807270024,53.76076364514541],[-2.0275792224544897,53.760647109910266],[-2.0302733340641934,53.76099671464552],[-2.030799014378282,53.761501694124924],[-2.0316532448886764,53.76126862742746],[-2.0359243974406462,53.76177360363708],[-2.039144189364439,53.763288495831645],[-2.040326970071139,53.76495869823871],[-2.039078479325178,53.7651917444556],[-2.0401955499926165,53.76845425567819],[-2.0409840704637494,53.770823301361105],[-2.0403926801103998,53.77202719137654],[-2.040326970071139,53.77435720300263],[-2.039144189364439,53.7747066935913],[-2.039341319482222,53.775405666038615],[-2.040261260031878,53.775793979035235],[-2.0382899588540453,53.7769588964697],[-2.0401955499926165,53.777036556482386],[-2.0421011411311873,53.77637644179411],[-2.046832263957985,53.77870621199745],[-2.0501834759603,53.779366290042226],[-2.0500520558817783,53.77820143942851],[-2.052089067098872,53.77847324079698],[-2.0552431489834033,53.77897801009678]]]]}},{"type":"Feature","properties":{"species":"Cystopteris fragilis","commonName":"","locationName":"Green's Clough, South bank","rarity":"","page":"33","locations":[],"common":false,"recordCount":5},"geometry":{"type":"MultiPolygon","coordinates":[[[[-2.2165965240941743,53.74987663330881],[-2.2146305731269176,53.74907741438947],[-2.2107601071601297,53.75192910314372],[-2.2106065172408127,53.7535637418932],[-2.2088863101444627,53.75490773054634],[-2.2073196929674292,53.755997419507274],[-2.2050465621615376,53.75656041439408],[-2.201759737888155,53.756524092371045],[-2.2015754299849744,53.757232366154405],[-2.2053844599840353,53.757232366154405],[-2.208302668451058,53.75674202403806],[-2.2112823128858072,53.75534360952315],[-2.214323393288283,53.752237873113685],[-2.215767138529863,53.75087563557735],[-2.2165965240941743,53.74987663330881]]],[[[-2.192364171063487,53.74361223375663],[-2.184716968946136,53.74125214585011],[-2.1828803046821434,53.740274497391006],[-2.1812773976881132,53.739454835196284],[-2.1795576120591025,53.738704287117706],[-2.178155068439326,53.73926719943323],[-2.178188462335035,53.73948446181913],[-2.1820621542372733,53.74093614075496],[-2.191512626722909,53.74454043285006],[-2.192364171063487,53.74361223375663]]],[[[-2.1714805410250433,53.725030822130456],[-2.171162341874832,53.7247831029285],[-2.1700737658346343,53.72500109590326],[-2.168549759378357,53.72557579923787],[-2.1682315602281457,53.72597214178873],[-2.166657311800783,53.72674499901759],[-2.1666238171533925,53.72782499365664],[-2.1645304016914735,53.72992545424247],[-2.1638102667725736,53.73065860917371],[-2.1662888706794856,53.73126295700348],[-2.1678798664305434,53.72922200978995],[-2.1678966137542393,53.728835605716256],[-2.1691526630313898,53.72725032106347],[-2.1698560506265943,53.726200037063805],[-2.1714805410250433,53.725030822130456]]],[[[-2.16513676280924,53.76529759003637],[-2.1629814373208838,53.76361735267986],[-2.162481651700396,53.76171546444003],[-2.1597796856896307,53.76148464689911],[-2.157390085691672,53.76206630467246],[-2.158295947128807,53.76436515892737],[-2.1637935889541775,53.76667311891628],[-2.16513676280924,53.76529759003637]]],[[[-2.0806785731154416,53.783824595367186],[-2.0793361264745904,53.78244629053688],[-2.0802824413197802,53.78056080022597],[-2.0805025145395923,53.7787012337018],[-2.077311452852322,53.777322760582045],[-2.0724478346944823,53.776529467789885],[-2.0679803483323043,53.77743980251155],[-2.0669680115211704,53.77762186708642],[-2.0670120261651324,53.778012002801574],[-2.0683984874499464,53.77807702506818],[-2.0705992196480634,53.777686889957465],[-2.0733721422176914,53.77746581178488],[-2.0766512331928872,53.77831110439379],[-2.0794021484405336,53.77959851734715],[-2.0790720386108164,53.7811459614578],[-2.078191745731569,53.78258932427558],[-2.080062368099969,53.7842406784945],[-2.0806785731154416,53.783824595367186]]]]}},{"type":"Feature","properties":{"species":"Dryopteris affinis","commonName":"","locationName":"Green's Clough","rarity":"","page":"32","locations":[],"common":false,"recordCount":2},"geometry":{"type":"MultiPolygon","coordinates":[[[[-2.192364171063487,53.74361223375663],[-2.184716968946136,53.74125214585011],[-2.1828803046821434,53.740274497391006],[-2.1812773976881132,53.739454835196284],[-2.1795576120591025,53.738704287117706],[-2.178155068439326,53.73926719943323],[-2.178188462335035,53.73948446181913],[-2.1820621542372733,53.74093614075496],[-2.191512626722909,53.74454043285006],[-2.192364171063487,53.74361223375663]]],[[[-2.1714805410250433,53.725030822130456],[-2.171162341874832,53.7247831029285],[-2.1700737658346343,53.72500109590326],[-2.168549759378357,53.72557579923787],[-2.1682315602281457,53.72597214178873],[-2.166657311800783,53.72674499901759],[-2.1666238171533925,53.72782499365664],[-2.1645304016914735,53.72992545424247],[-2.1638102667725736,53.73065860917371],[-2.1662888706794856,53.73126295700348],[-2.1678798664305434,53.72922200978995],[-2.1678966137542393,53.728835605716256],[-2.1691526630313898,53.72725032106347],[-2.1698560506265943,53.726200037063805],[-2.1714805410250433,53.725030822130456]]]]}},{"type":"Feature","geometry":{"type":"Polygon","coordinates":[[[-2.191512626722909,53.74454043285006],[-2.1820621542372733,53.74093614075496],[-2.178188462335035,53.73948446181913],[-2.178155068439326,53.73926719943323],[-2.1795576120591025,53.738704287117706],[-2.1812773976881132,53.739454835196284],[-2.1828803046821434,53.740274497391006],[-2.184716968946136,53.74125214585011],[-2.192364171063487,53.74361223375663],[-2.191512626722909,53.74454043285006]]]},"properties":{"species":"Hymenophyllum wilsonii","commonName":"","locationName":"Thieveley Scouts","rarity":"in two places, but rare","page":"36","locations":[],"common":false,"recordCount":1}},{"type":"Feature","properties":{"species":"Asplenium viride","commonName":"","locationName":"Dulesgate","rarity":"very rare","page":"34","locations":[],"common":false,"recordCount":4},"geometry":{"type":"MultiPolygon","coordinates":[[[[-2.166755043896422,53.71357124711351],[-2.162696299650944,53.71311937291193],[-2.161772031159399,53.71212047587392],[-2.1589992256847665,53.710883713346114],[-2.154217140880689,53.70959934454623],[-2.1524087894841895,53.709171212899825],[-2.1501182110486226,53.709242568476746],[-2.1453562190378395,53.71055073260733],[-2.1397704225019845,53.71033667216932],[-2.1362340908821618,53.71014639531008],[-2.130791250651131,53.70940813802328],[-2.1298777725599574,53.70919964457986],[-2.127654631114828,53.70907346782423],[-2.1257165516323853,53.708994051662735],[-2.125223240156807,53.708410079215824],[-2.1251113507117223,53.70834745016859],[-2.124601618376825,53.70776436165642],[-2.122972329783477,53.70659266582905],[-2.1221177965241624,53.70667183683015],[-2.1215261661906295,53.70634067740687],[-2.1170655660792628,53.70550813072919],[-2.1097116037334964,53.703819199725366],[-2.1076621388174632,53.70450905297246],[-2.10742102529793,53.70524646979989],[-2.114704662867166,53.7056449073856],[-2.117276540408855,53.70669153143021],[-2.121693037806969,53.707064988162514],[-2.122463430166048,53.70757130691865],[-2.12528351853669,53.70962312950997],[-2.1280965095979125,53.70983719357842],[-2.1304674592066566,53.710312887608985],[-2.137821421552423,53.711073986870716],[-2.1451351983116007,53.71116912331032],[-2.1513639642328775,53.709646914460244],[-2.1529312021098437,53.710075041265995],[-2.1565479049028444,53.71145453133832],[-2.1601646076958443,53.71207290875667],[-2.1618925879191666,53.71376150848312],[-2.1663933736171215,53.71433228742879],[-2.166755043896422,53.71357124711351]]],[[[-2.1580155240136225,53.72325635199411],[-2.1579095327389743,53.72272328340869],[-2.1543853228569083,53.72240187114327],[-2.151510309532065,53.72328770875929],[-2.1489135233031744,53.72473009468205],[-2.145091212961159,53.72586084361413],[-2.1445745054972467,53.72722475680499],[-2.1452104531451384,53.72861214034778],[-2.146204121344969,53.7293900740816],[-2.14744951882209,53.730479549019165],[-2.148824093165189,53.73179040859894],[-2.149804512455689,53.73173554534043],[-2.1497117700903714,53.73020718293158],[-2.1483338835199395,53.72954095628776],[-2.146694330990219,53.728392670293175],[-2.1466015886249012,53.72640954964222],[-2.1501125495976368,53.725312130425635],[-2.152338366365257,53.72384624722146],[-2.1543654494929116,53.72328182936759],[-2.1565316461685424,53.72324851279917],[-2.1580155240136225,53.72325635199411]]],[[[-2.1338988575818707,53.68653521369847],[-2.132932580454019,53.685962978022005],[-2.127049657940336,53.68808357712818],[-2.123383488837607,53.68912700732581],[-2.119319440917526,53.690052609245015],[-2.1153974925750703,53.689177495227895],[-2.1113618645705152,53.688100406852676],[-2.10761043572121,53.68732623256423],[-2.1036600674632293,53.68762917202444],[-2.101528573798852,53.68853797732811],[-2.1024664310111785,53.68959822539101],[-2.1048821238308064,53.688319192658795],[-2.10789463487646,53.68806674739698],[-2.1092303709061375,53.68870627245401],[-2.1130954794175425,53.68956456713267],[-2.1156248518992706,53.690086267113216],[-2.1197741595659267,53.690894047877805],[-2.123781367654957,53.689631883622425],[-2.1267086189540363,53.689059690028834],[-2.1338988575818707,53.68653521369847]]]]}},{"type":"Feature","properties":{"species":"Lycopodium clavatum","commonName":"","locationName":"Coal Clough","rarity":"rare","page":"36","locations":[],"common":false,"recordCount":2},"geometry":{"type":"MultiPolygon","coordinates":[[[[-2.150734919432264,53.749515195044104],[-2.149108132061481,53.74599957195869],[-2.148132059639011,53.74554479325614],[-2.147658812403874,53.74321834828556],[-2.147155987216541,53.74013954640896],[-2.146386960459444,53.73970219830111],[-2.145884135272111,53.740489421618335],[-2.1462686486506595,53.743200855730244],[-2.146446116363836,53.74388305999199],[-2.147008097455561,53.744880107836465],[-2.1477179683082666,53.74692660560854],[-2.149048976157089,53.74729391517058],[-2.1498475808663824,53.74962013449511],[-2.150734919432264,53.749515195044104]]],[[[-2.051417814636908,53.70771870206078],[-2.0480828752547233,53.70833556190322],[-2.0452541320287634,53.70997460268675],[-2.0422169550914164,53.71258283700757],[-2.0440630822494112,53.713393471492076],[-2.051417814636908,53.70771870206078]]]]}},{"type":"Feature","geometry":{"type":"Polygon","coordinates":[[[-2.1649584863473184,53.76599515635489],[-2.1630437354796226,53.76477952369218],[-2.1614126514071406,53.764472116753865],[-2.1598524840334625,53.763480015373766],[-2.159663372836653,53.76157958671257],[-2.161838151599962,53.76120228549581],[-2.1628546242828124,53.76156561265389],[-2.162830985383212,53.76297696909831],[-2.1637292635680567,53.764011002126566],[-2.1653367087409374,53.76519871134467],[-2.1649584863473184,53.76599515635489]]]},"properties":{"species":"Gymnocarpium robertianum","commonName":"","locationName":"About a quarter of a mile below Shedding House on\nthe opposite side of the brook, and among the heaps of rubble\nstones.","rarity":"","page":"32","locations":[],"common":false,"recordCount":1}},{"type":"Feature","properties":{"species":"Asplenium ruta-muraria","commonName":"","locationName":"On rock in Eaves-wood","rarity":"rare","page":"34","locations":[],"common":false,"recordCount":2},"geometry":{"type":"MultiPolygon","coordinates":[[[[-2.208248938808305,53.76945649005144],[-2.207139289364914,53.76829105589981],[-2.204584700718259,53.76753138302349],[-2.2000503058704477,53.76860247062195],[-2.1999225764381145,53.77144284373544],[-2.2062930818757103,53.77139094495374],[-2.208248938808305,53.76945649005144]]],[[[-2.0309480294749584,53.75033215016025],[-2.0272838301759353,53.746960151354756],[-2.025039508105284,53.74446821931155],[-2.0225890748240625,53.744942239506464],[-2.02407765578929,53.7467163819156],[-2.026092965403753,53.74908630260803],[-2.029734263457157,53.75113109816835],[-2.0309480294749584,53.75033215016025]]]]}},{"type":"Feature","properties":{"species":"Hymenophyllum tunbrigense","commonName":"","locationName":"Langfield Edge","rarity":"","page":"36","locations":[],"common":false,"recordCount":2},"geometry":{"type":"MultiPolygon","coordinates":[[[[-2.112604886057518,53.72753941698202],[-2.1121799972543247,53.726746610951835],[-2.1092221175090176,53.72517062286548],[-2.108192579255126,53.7249772460256],[-2.10698328035373,53.72437777217048],[-2.104956887600039,53.72437777217048],[-2.1035351442970462,53.723903988400075],[-2.103731246821597,53.724658172295584],[-2.104973229477085,53.72576041673454],[-2.106051793362114,53.725683067190246],[-2.112604886057518,53.72753941698202]]],[[[-2.051417814636908,53.70771870206078],[-2.0480828752547233,53.70833556190322],[-2.0452541320287634,53.70997460268675],[-2.0422169550914164,53.71258283700757],[-2.0440630822494112,53.713393471492076],[-2.051417814636908,53.70771870206078]]]]}},{"type":"Feature","properties":{"species":"Botrychium lunaria","commonName":"","locationName":"Fields near Speed clough, Harley-wood","rarity":"","page":"36","locations":[],"common":false,"recordCount":5},"geometry":{"type":"MultiPolygon","coordinates":[[[[-2.117147900453499,53.732853669102475],[-2.116811143234171,53.73205682532684],[-2.114629542117651,53.732143439512384],[-2.114420013631884,53.73269408223693],[-2.1146441837358823,53.73173635128868],[-2.1141610103342376,53.73147650568047],[-2.1118915595083276,53.7314851672266],[-2.111449787081561,53.73159908420577],[-2.111520828664011,53.7313963113021],[-2.111692756756883,53.730793325293405],[-2.1100962816087843,53.73017580053753],[-2.1084261229923116,53.731679639090586],[-2.10804542507238,53.732355259188076],[-2.1110296055415185,53.7327984019575],[-2.1111349844467244,53.732497620557965],[-2.1110716288873532,53.73279304021566],[-2.1102663398846113,53.73436070190206],[-2.112682206892838,53.735148841217224],[-2.1137364034055186,53.734178821499995],[-2.11400574544488,53.73378278271768],[-2.1137364034055186,53.734490615993174],[-2.112711490129301,53.735244109803666],[-2.114673466972346,53.736491242293084],[-2.116401177923684,53.734845712460206],[-2.117147900453499,53.732853669102475]]],[[[-2.101096061761419,53.72588034684192],[-2.101082314905765,53.72435938951601],[-2.099556413928195,53.72300105491935],[-2.097398157590551,53.72270010059818],[-2.09622967485998,53.72285464497809],[-2.0955560789329444,53.72392017235063],[-2.0963533965608634,53.723985241849796],[-2.0954323572320606,53.72498567272462],[-2.0957347880564434,53.726099945761035],[-2.101096061761419,53.72588034684192]]],[[[-2.0296472050852343,53.751163152540606],[-2.024852843093252,53.74748264994515],[-2.0230892101473406,53.74841833956183],[-2.0231633816263743,53.748676625213],[-2.022701870201276,53.74912983959345],[-2.0241523346801564,53.74968538603529],[-2.0239545440693996,53.74995341020029],[-2.0263280313984775,53.750723361017094],[-2.0276610577022223,53.751957445786],[-2.0296472050852343,53.751163152540606]]]]}},{"type":"Feature","geometry":{"type":"Polygon","coordinates":[[[-2.1056618072648243,53.73776120951709],[-2.1031267282518473,53.738022741263435],[-2.102883537532579,53.737155321385906],[-2.1040479052187724,53.73637070507194],[-2.1058755203211503,53.737225064349424],[-2.1056618072648243,53.73776120951709]]]},"properties":{"species":"Lycopodium alpinum","commonName":"","locationName":"Stansfield moor, near the Bride Stone","rarity":"destroyed by moor fire","page":"36","locations":[],"common":false,"recordCount":1}}],"metadata":{"Equisetum telmateia":{"locations":["Above Hey Rake Farm","High Greenwood Wood","Staups Clough"],"rarity":[],"common":false},"Equisetum palustre":{"locations":["Shedding"],"rarity":[],"common":false},"Equisetum arvense":{"locations":["Damp meadows"],"rarity":[],"common":true},"Equisetum sylvaticum":{"locations":["Shady damp woods"],"rarity":[],"common":true},"Equisetum fluviatile":{"locations":["In broad places of the canal"],"rarity":[],"common":true},"Cryptogramma crispa":{"locations":["Scarth-rake, Cliviger.","Ratton Clough, Cliviger","Heald, Thorney-ford (slate quarries)","Worstholme (slate quarries)"],"rarity":[],"common":false},"Polypodium vulgare":{"locations":["On walls in Cliviger, various places"],"rarity":[],"common":true},"Phegopteris connectilis":{"locations":["Greenhurst-hey Clough","Hebden Valley","Green's Clough","Scaitcliffe Wood","Thieveley Scouts","Dulesgate","Coal Clough","Nearly all woods of district"],"rarity":[],"common":true},"Gymnocarpium dryopteris":{"locations":["Hebden Valley","Dodbottom;","Staups Clough","Green's Clough","Nearly all shady woods of district"],"rarity":[],"common":true},"Gymnocarpium robertianum":{"locations":["About a quarter of a mile below Shedding House on\nthe opposite side of the brook, and among the heaps of rubble\nstones."],"rarity":[],"common":false},"Oreopteris limbosperma":{"locations":["On most of the mountainous heaths in the district. Seldom seen below 800 feet of altitude."],"rarity":[],"common":true},"Dryopteris filix-mas":{"locations":["Very abundant"],"rarity":[],"common":true},"Dryopteris dilatata":{"locations":["In most shady woods and rocky places"],"rarity":[],"common":true},"Polystichum aculeatum":{"locations":["Pennant Clough","above Holebottom","Hebden Valley","Mytholm Valley","Shedding, the bottom of the valley","Green's Clough, South bank","Ramsden Clough","Scaitcliffe Clough"],"rarity":[],"common":false},"Cystopteris fragilis":{"locations":["Shedding, among the old lime-kilns","below the Ridge public-house","Easden near Holmes Chapel","Green's Clough, South bank","Thieveley Scouts"],"rarity":[],"common":false},"Athyrium filix-femina":{"locations":["Wet, shady places, moist rocky woods, common"],"rarity":[],"common":true},"Asplenium adiantum-nigrum":{"locations":["near Mount Skip","near Hebden Bridge","Scout, Harley-wood","Shedding","Thieveley Scouts","Ruddle Scout, above Portsmouth"],"rarity":["now rare"],"common":false},"Asplenium trichomanes":{"locations":["Shedding","Cant Clough","Dodbottom, near Holmes Chapel","Thieveley Scouts","High Greenwood Wood","Hebden Valley","Scout, Harley-wood","Eaves, near Heptonstall","Ragley-naze"],"rarity":["rare in locations"],"common":false},"Asplenium viride":{"locations":["Ram's Lumb","Dulesgate","Ramsden Clough","Tower Clough"],"rarity":["very rare"],"common":false},"Asplenium ruta-muraria":{"locations":["On rock in Eaves-wood","Barcroft, Cliviger"],"rarity":["rare"],"common":false},"Asplenium scolopendrium":{"locations":["Hebden Valley","Cant Clough","Holebottom Clough","Stanally Clough","Staup's Clough"],"rarity":["rare"],"common":false},"Struthiopteris spicant":{"locations":["In most of the little ravines on the hills"],"rarity":[],"common":true},"Hymenophyllum tunbrigense":{"locations":["Langfield Edge","Common above springs, Harleywood (until railway was made then destroyed by fetching stones)"],"rarity":[],"common":false},"Hymenophyllum wilsonii":{"locations":["Thieveley Scouts"],"rarity":["in two places, but rare"],"common":false},"Osmunda regalis":{"locations":["High Greenwood Wood","above Allescholes, on the moor"],"rarity":["now very rare"],"common":false},"Botrychium lunaria":{"locations":["Fields near Speed clough, Harley-wood","Stanally Stones","Rake-hey","Royd hills, Harley-wood","fields above Eaves"],"rarity":[],"common":false},"Ophioglossum vulgatum":{"locations":["Meadows and pastures, not uncommon"],"rarity":[],"common":true},"Lycopodium clavatum":{"locations":["Coal Clough","Langfield Edge"],"rarity":["rare"],"common":false},"Lycopodium alpinum":{"locations":["Stansfield moor, near the Bride Stone"],"rarity":["destroyed by moor fire"],"common":false},"Huperzia selago":{"locations":["Scarthrake, Cliveger","Stansfield Moor"],"rarity":["very rare"],"common":false},"Chara vulgaris":{"locations":["Shedding","in the pond near Holmes Chapel, Cliviger"],"rarity":[],"common":false},"Pteridium aquilinum":{"locations":["Woods and heaths; common throughout district"],"rarity":[],"common":true},"Dryopteris affinis":{"locations":["Thieveley Scouts","Green's Clough","many rocky ravines of the district"],"rarity":[],"common":true},"Dryopteris oreades":{"locations":["Thieveley Scouts","Ratton Clough, Cliviger"],"rarity":[],"common":false}}}