{"type":"FeatureCollection","features":[{"type":"Feature","properties":{"fid":30925,"id":"DC39ABBF-E544-4859-AD71-571ACEADBB5F","classifica":"Single Track","feature_co":15301},"geometry":{"type":"LineString","coordinates":[[-2.2446097016053725,53.79987289840477],[-2.2449999266389713,53.801778270917445]]}},{"type":"Feature","properties":{"fid":45744,"id":"ECBA4EB9-64B0-42FF-B404-D71330A6385E","classifica":"Single Track","feature_co":15301},"geometry":{"type":"LineString","coordinates":[[-2.244502259875833,53.805825851866466],[-2.244381254706074,53.80611560117491]]}},{"type":"Feature","properties":{"fid":72586,"id":"44546CF8-8A24-4348-B1C7-1C33C7BF8864","classifica":"Single Track","feature_co":15301},"geometry":{"type":"LineString","coordinates":[[-2.244142596320313,53.79766379713913],[-2.2443240563393996,53.79853148628175]]}},{"type":"Feature","properties":{"fid":38484,"id":"BE810A4A-39CA-4B24-8AF2-F752F0BC5BE3","classifica":"Single Track","feature_co":15301},"geometry":{"type":"LineString","coordinates":[[-2.244077844435981,53.79736310137182],[-2.244111127085772,53.79752580588718]]}},{"type":"Feature","properties":{"fid":73289,"id":"6B3ADA54-AE65-4D57-8830-334FF4AABEF4","classifica":"Single Track","feature_co":15301},"geometry":{"type":"LineString","coordinates":[[-2.2438774943550888,53.79663925785991],[-2.2436662298503984,53.79534137364775],[-2.2439873835360116,53.79449261381988]]}},{"type":"Feature","properties":{"fid":51660,"id":"49DE315A-A889-447C-A43E-C5076B29C119","classifica":"Single Track","feature_co":15301},"geometry":{"type":"LineString","coordinates":[[-2.2436823788344733,53.80748930728892],[-2.243815131183226,53.80723359924696]]}},{"type":"Feature","properties":{"fid":27775,"id":"1EC936D1-6845-453C-A775-EF3FFFA02326","classifica":"Single Track","feature_co":15301},"geometry":{"type":"LineString","coordinates":[[-2.2433815388457403,53.808062002712546],[-2.2427302938098026,53.80930644899375]]}},{"type":"Feature","properties":{"fid":48801,"id":"07C219BA-BC2C-4541-B763-FDA3B0DF0FEF","classifica":"Single Track","feature_co":15301},"geometry":{"type":"LineString","coordinates":[[-2.2426430269930244,53.80947308280726],[-2.2427302938098026,53.80930644899375]]}},{"type":"Feature","properties":{"fid":31170,"id":"4ADDD9CB-E345-4798-92E6-9611E459A9A1","classifica":"Single Track","feature_co":15301},"geometry":{"type":"LineString","coordinates":[[-2.2419130824882494,53.81087730982864],[-2.2426430269930244,53.80947308280726]]}},{"type":"Feature","properties":{"fid":41212,"id":"D70D2787-4518-431D-A488-8397D0BB1433","classifica":"Single Track","feature_co":15301},"geometry":{"type":"LineString","coordinates":[[-2.2405530515283707,53.81478432642704],[-2.2415021909112998,53.8118368842837],[-2.2418751050559385,53.81095441331235]]}},{"type":"Feature","properties":{"fid":33869,"id":"E0766732-E922-4DDA-B6DC-9E4316C6B82A","classifica":"Single Track","feature_co":15301},"geometry":{"type":"LineString","coordinates":[[-2.2405133630972354,53.814908439855266],[-2.2405530515283707,53.81478432642704]]}},{"type":"Feature","properties":{"fid":42459,"id":"9353C4ED-B35F-487D-B26C-1219E11C2FC7","classifica":"Single Track","feature_co":15301},"geometry":{"type":"LineString","coordinates":[[-2.240325651006997,53.815493752463645],[-2.2405133630972354,53.814908439855266]]}},{"type":"Feature","properties":{"fid":3925,"id":"1A29D485-1B39-4B87-8F6A-4F4CAC0C0A29","classifica":"Single Track","feature_co":15301},"geometry":{"type":"LineString","coordinates":[[-2.239933179098141,53.81671384447728],[-2.2403138661199744,53.815531076101976]]}},{"type":"Feature","properties":{"fid":6148,"id":"E60FA598-C9E1-451D-B322-854013E9CAD9","classifica":"Single Track","feature_co":15301},"geometry":{"type":"LineString","coordinates":[[-2.2396033654732266,53.817739040812654],[-2.239933179098141,53.81671384447728]]}},{"type":"Feature","properties":{"fid":37720,"id":"06E238A4-5AA3-46B4-B461-025D381A5B9E","classifica":"Single Track","feature_co":15301},"geometry":{"type":"LineString","coordinates":[[-2.2390119474096277,53.81955920274403],[-2.2395615722316804,53.81786792168083]]}},{"type":"Feature","properties":{"fid":1313,"id":"BC1ABFBC-6CA4-403B-AC60-32748E028938","classifica":"Single Track","feature_co":15301},"geometry":{"type":"LineString","coordinates":[[-2.23887568995893,53.8200382623139],[-2.2382209282474883,53.82144168504619],[-2.2373544113759003,53.82277308063637]]}},{"type":"Feature","properties":{"fid":54879,"id":"A3945D44-04E7-4566-98B1-0A7E8024CA42","classifica":"Single Track","feature_co":15301},"geometry":{"type":"LineString","coordinates":[[-2.236046264932193,53.82465063855082],[-2.2362343554513537,53.82438449458328]]}},{"type":"Feature","properties":{"fid":61829,"id":"A73B52F3-03EF-4291-9511-A5918381BF19","classifica":"Single Track","feature_co":15301},"geometry":{"type":"LineString","coordinates":[[-2.2360326939216066,53.82466864115718],[-2.2360135542050577,53.824695912305394]]}},{"type":"Feature","properties":{"fid":48509,"id":"B1E6968A-B896-48EE-954A-778628A4E40C","classifica":"Single Track","feature_co":15301},"geometry":{"type":"LineString","coordinates":[[-2.2360135542050577,53.824695912305394],[-2.2349450843005636,53.82617805536587],[-2.233905709884554,53.82717001968251]]}},{"type":"Feature","properties":{"fid":24699,"id":"DB4FC537-D689-4893-9BDA-0A2DCBA0BF05","classifica":"Single Track","feature_co":15301},"geometry":{"type":"LineString","coordinates":[[-2.233905709884554,53.82717001968251],[-2.2338754587955414,53.82719398662754]]}},{"type":"Feature","properties":{"fid":17689,"id":"220A6B9A-F000-4AE2-A7F3-16131FFEFA85","classifica":"Single Track","feature_co":15301},"geometry":{"type":"LineString","coordinates":[[-2.2292463784468337,53.82936848349404],[-2.2321880990294365,53.82816481873336],[-2.2332212529204365,53.82762713177343]]}},{"type":"Feature","properties":{"fid":12601,"id":"53000B9E-48BB-4732-9870-2F9422C11CF7","classifica":"Single Track","feature_co":15301},"geometry":{"type":"LineString","coordinates":[[-2.2292463784468337,53.82936848349404],[-2.229177251116633,53.829396568172164]]}},{"type":"Feature","properties":{"fid":26996,"id":"398AD7EE-5D13-4FCB-AF2E-8E6C3CA8E41C","classifica":"Single Track","feature_co":15301},"geometry":{"type":"LineString","coordinates":[[-2.228379849512641,53.82971958867702],[-2.224677534230077,53.83121966157223]]}},{"type":"Feature","properties":{"fid":20777,"id":"D07F8479-472A-47B8-B399-5EEE814B7F54","classifica":"Single Track","feature_co":15301},"geometry":{"type":"LineString","coordinates":[[-2.224677534230077,53.83121966157223],[-2.223901895846988,53.831533893064154]]}},{"type":"Feature","properties":{"fid":15483,"id":"718C524E-7374-40F9-BEE0-FBC34E40B634","classifica":"Single Track","feature_co":15301},"geometry":{"type":"LineString","coordinates":[[-2.223901895846988,53.831533893064154],[-2.2211539846021857,53.83264091515745]]}},{"type":"Feature","properties":{"fid":54816,"id":"8C00E53C-3CD6-4703-8ACA-062A78CC89CC","classifica":"Single Track","feature_co":15301},"geometry":{"type":"LineString","coordinates":[[-2.2211539846021857,53.83264091515745],[-2.2194564163385433,53.83321072440296]]}},{"type":"Feature","properties":{"fid":84616,"id":"BD629681-7923-4C48-8FDA-B98A1D766472","classifica":"Single Track","feature_co":15301},"geometry":{"type":"LineString","coordinates":[[-2.2449999266389713,53.801778270917445],[-2.2450651256662306,53.80301164702212]]}},{"type":"Feature","properties":{"fid":85735,"id":"320A0C7D-26A3-43BE-A8C1-C80DB9A22536","classifica":"Single Track","feature_co":15301},"geometry":{"type":"LineString","coordinates":[[-2.236728638722289,53.823676887416035],[-2.236649230496061,53.823791910122196]]}},{"type":"Feature","properties":{"fid":91210,"id":"DB9DEFE7-EA06-4D75-9CB5-5E1BBFF144AC","classifica":"Single Track","feature_co":15301},"geometry":{"type":"LineString","coordinates":[[-2.2433815388457403,53.808062002712546],[-2.2434464204069586,53.80793792687385]]}},{"type":"Feature","properties":{"fid":93474,"id":"2967348A-A0B4-483C-A262-0FCA2FACEAF8","classifica":"Single Track","feature_co":15301},"geometry":{"type":"LineString","coordinates":[[-2.2446097016053725,53.79987289840477],[-2.2443240563393996,53.79853148628175]]}},{"type":"Feature","properties":{"fid":95076,"id":"80232356-D881-4F6B-ADFF-0A926D1DB047","classifica":"Single Track","feature_co":15301},"geometry":{"type":"LineString","coordinates":[[-2.2395615722316804,53.81786792168083],[-2.2396033654732266,53.817739040812654]]}},{"type":"Feature","properties":{"fid":98855,"id":"C652440C-5AFE-4D90-A89A-60766659DF61","classifica":"Single Track","feature_co":15301},"geometry":{"type":"LineString","coordinates":[[-2.2438774943550888,53.79663925785991],[-2.244077844435981,53.79736310137182]]}},{"type":"Feature","properties":{"fid":99951,"id":"EB0DA5C0-B010-4C10-8C74-0D542BD058AB","classifica":"Single Track","feature_co":15301},"geometry":{"type":"LineString","coordinates":[[-2.244252699648708,53.8063868505246],[-2.244381254706074,53.80611560117491]]}},{"type":"Feature","properties":{"fid":100127,"id":"A966253E-BFD4-40C3-9938-E5EC3C152CDA","classifica":"Single Track","feature_co":15301},"geometry":{"type":"LineString","coordinates":[[-2.244502259875833,53.805825851866466],[-2.2449149679033944,53.80447061190515],[-2.2450651256662306,53.80301164702212]]}},{"type":"Feature","properties":{"fid":101341,"id":"013406E7-3F16-47D0-BD5E-E9EDDBE1EFCA","classifica":"Single Track","feature_co":15301},"geometry":{"type":"LineString","coordinates":[[-2.236728638722289,53.823676887416035],[-2.2373544113759003,53.82277308063637]]}},{"type":"Feature","properties":{"fid":101530,"id":"B845A642-EB30-4A13-929A-F7720897313D","classifica":"Single Track","feature_co":15301},"geometry":{"type":"LineString","coordinates":[[-2.228379849512641,53.82971958867702],[-2.229177251116633,53.829396568172164]]}},{"type":"Feature","properties":{"fid":105099,"id":"4FF2E60A-15BB-45C8-B140-AB26274F10D7","classifica":"Single Track","feature_co":15301},"geometry":{"type":"LineString","coordinates":[[-2.244252699648708,53.8063868505246],[-2.243815131183226,53.80723359924696]]}},{"type":"Feature","properties":{"fid":106771,"id":"54547BA5-7B10-42E0-BE1C-B77674D8C973","classifica":"Single Track","feature_co":15301},"geometry":{"type":"LineString","coordinates":[[-2.236649230496061,53.823791910122196],[-2.2362343554513537,53.82438449458328]]}},{"type":"Feature","properties":{"fid":110574,"id":"60F886C4-372B-4F79-B443-5BFA17E54DDA","classifica":"Single Track","feature_co":15301},"geometry":{"type":"LineString","coordinates":[[-2.2434464204069586,53.80793792687385],[-2.2436093743308088,53.807626432330835]]}},{"type":"Feature","properties":{"fid":110637,"id":"297F6141-AE9F-419E-A79D-19A14CB326D3","classifica":"Single Track","feature_co":15301},"geometry":{"type":"LineString","coordinates":[[-2.238900841256355,53.819893686009756],[-2.23896536005492,53.81970040640991]]}},{"type":"Feature","properties":{"fid":112499,"id":"41455DD2-7E98-414C-B6BF-96DEA075F668","classifica":"Single Track","feature_co":15301},"geometry":{"type":"LineString","coordinates":[[-2.2418751050559385,53.81095441331235],[-2.2419130824882494,53.81087730982864]]}},{"type":"Feature","properties":{"fid":15311,"id":"4BAA6694-83B4-4A2E-892D-4F9226EFFC8D","classifica":"Multi Track","feature_co":15300},"geometry":{"type":"LineString","coordinates":[[-2.240113741849458,53.781664326910956],[-2.238531367738702,53.78081236982234],[-2.237272283587918,53.779878320475426]]}},{"type":"Feature","properties":{"fid":61432,"id":"BAC953B2-06A6-4F75-9D35-E3605856125C","classifica":"Multi Track","feature_co":15300},"geometry":{"type":"LineString","coordinates":[[-2.237272283587918,53.779878320475426],[-2.236358405989039,53.7789841130082]]}},{"type":"Feature","properties":{"fid":63634,"id":"003D8B4B-4B0D-43A5-9445-E489AAB62E4E","classifica":"Multi Track","feature_co":15300},"geometry":{"type":"LineString","coordinates":[[-2.2362593480245385,53.77888229456534],[-2.236358405989039,53.7789841130082]]}},{"type":"Feature","properties":{"fid":43162,"id":"F4F307B3-A5F8-4937-88F3-D791B6240427","classifica":"Multi Track","feature_co":15300},"geometry":{"type":"LineString","coordinates":[[-2.2362593480245385,53.77888229456534],[-2.2350410833095284,53.777630414967646]]}},{"type":"Feature","properties":{"fid":7388,"id":"6441A254-68D9-4F96-9BCD-93674651835E","classifica":"Multi Track","feature_co":15300},"geometry":{"type":"LineString","coordinates":[[-2.2348361125419562,53.77741968870102],[-2.2350410833095284,53.777630414967646]]}},{"type":"Feature","properties":{"fid":39701,"id":"36D691BA-475D-4CD8-A6F8-FFAB613BF7C7","classifica":"Multi Track","feature_co":15300},"geometry":{"type":"LineString","coordinates":[[-2.2212845005561515,53.76915513036594],[-2.2181520157031294,53.768678850326104]]}},{"type":"Feature","properties":{"fid":6243,"id":"0FC1DB13-D0B4-43D0-9647-0738D373CDF3","classifica":"Multi Track","feature_co":15300},"geometry":{"type":"LineString","coordinates":[[-2.214766183616535,53.767952986294155],[-2.2145535844291837,53.7678829912087]]}},{"type":"Feature","properties":{"fid":60840,"id":"2D8E1087-FC07-4D24-B23C-ADF7EF44C83D","classifica":"Multi Track","feature_co":15300},"geometry":{"type":"LineString","coordinates":[[-2.2145535844291837,53.7678829912087],[-2.2144152971617177,53.767837579762165]]}},{"type":"Feature","properties":{"fid":20651,"id":"18F26102-F724-4289-BCB3-E694C12EC785","classifica":"Multi Track","feature_co":15300},"geometry":{"type":"LineString","coordinates":[[-2.2144152971617177,53.767837579762165],[-2.2136913890079692,53.7675785807367]]}},{"type":"Feature","properties":{"fid":39364,"id":"1B1ECAE7-4EE7-4805-B104-97388357BB09","classifica":"Multi Track","feature_co":15300},"geometry":{"type":"LineString","coordinates":[[-2.212681913654596,53.767127291846656],[-2.2136913890079692,53.7675785807367]]}},{"type":"Feature","properties":{"fid":39572,"id":"89C56E10-6D2F-4942-81D8-09326A4B5331","classifica":"Multi Track","feature_co":15300},"geometry":{"type":"LineString","coordinates":[[-2.212293164186561,53.76693186307982],[-2.212681913654596,53.767127291846656]]}},{"type":"Feature","properties":{"fid":9655,"id":"09C094B4-745C-47AC-833A-7CA83CCE971A","classifica":"Multi Track","feature_co":15300},"geometry":{"type":"LineString","coordinates":[[-2.210999361828046,53.76610527457618],[-2.2119120827272742,53.76672203864593]]}},{"type":"Feature","properties":{"fid":39251,"id":"1A3302B6-D491-43C3-872B-39C647D5A600","classifica":"Multi Track","feature_co":15300},"geometry":{"type":"LineString","coordinates":[[-2.2072783880702254,53.76345931817345],[-2.2076111511255694,53.76369440766585]]}},{"type":"Feature","properties":{"fid":47557,"id":"5DB456AE-B080-4DC0-9D0D-941AA80E0044","classifica":"Multi Track","feature_co":15300},"geometry":{"type":"LineString","coordinates":[[-2.197570756676242,53.753258855763356],[-2.1966081668613633,53.752669746581205]]}},{"type":"Feature","properties":{"fid":52972,"id":"223AE9D8-452C-46C4-B1DF-C81B844F4C4B","classifica":"Multi Track","feature_co":15300},"geometry":{"type":"LineString","coordinates":[[-2.196167388817481,53.75239471661789],[-2.195069422224079,53.751709375109435]]}},{"type":"Feature","properties":{"fid":11999,"id":"C864E7CF-2DE6-4806-A91C-0FF4357C80A1","classifica":"Multi Track","feature_co":15300},"geometry":{"type":"LineString","coordinates":[[-2.195069422224079,53.751709375109435],[-2.194911856244902,53.75161112283477]]}},{"type":"Feature","properties":{"fid":32161,"id":"F06ED977-2FA5-4339-8C07-4356EFA82A60","classifica":"Multi Track","feature_co":15300},"geometry":{"type":"LineString","coordinates":[[-2.194164206461061,53.751148824548274],[-2.194911856244902,53.75161112283477]]}},{"type":"Feature","properties":{"fid":23551,"id":"DC433FEA-628C-44D1-8B95-11468EA9DEA0","classifica":"Multi Track","feature_co":15300},"geometry":{"type":"LineString","coordinates":[[-2.1918967752028715,53.74979205076058],[-2.1916779622423896,53.749661086024624]]}},{"type":"Feature","properties":{"fid":22214,"id":"7B731779-A4C7-4509-8B1F-9DECBB54CACF","classifica":"Multi Track","feature_co":15300},"geometry":{"type":"LineString","coordinates":[[-2.1914918359718776,53.74954813457007],[-2.1907695513476373,53.74911192963372]]}},{"type":"Feature","properties":{"fid":63202,"id":"244E498A-77BD-486F-A626-8C2292CBA20A","classifica":"Multi Track","feature_co":15300},"geometry":{"type":"LineString","coordinates":[[-2.19060778444994,53.749019250955385],[-2.1897827831660703,53.74856648580053]]}},{"type":"Feature","properties":{"fid":26478,"id":"EADE0A1D-1E42-4C2D-B52E-B125BD2AA2D5","classifica":"Multi Track","feature_co":15300},"geometry":{"type":"LineString","coordinates":[[-2.187404838886351,53.747357385542095],[-2.1897827831660703,53.74856648580053]]}},{"type":"Feature","properties":{"fid":68840,"id":"55BB397C-5CC1-4CE8-B86B-2379C0566909","classifica":"Multi Track","feature_co":15300},"geometry":{"type":"LineString","coordinates":[[-2.1929362687769673,53.75041406015306],[-2.1918967752028715,53.74979205076058]]}},{"type":"Feature","properties":{"fid":70363,"id":"6A10D2FA-0A36-4A34-8011-6E26442FBBB6","classifica":"Multi Track","feature_co":15300},"geometry":{"type":"LineString","coordinates":[[-2.2076111511255694,53.76369440766585],[-2.210999361828046,53.76610527457618]]}},{"type":"Feature","properties":{"fid":70753,"id":"C25AD690-392C-482D-9305-93D7716D4FEC","classifica":"Multi Track","feature_co":15300},"geometry":{"type":"LineString","coordinates":[[-2.196167388817481,53.75239471661789],[-2.1964308208571186,53.752559125302625]]}},{"type":"Feature","properties":{"fid":71571,"id":"A3ACC45B-73BC-4F9C-AA39-9228BF8A1C9A","classifica":"Multi Track","feature_co":15300},"geometry":{"type":"LineString","coordinates":[[-2.223675872529688,53.76962156996268],[-2.2259034642901483,53.770317824908844]]}},{"type":"Feature","properties":{"fid":74716,"id":"469C1E94-33DE-4D92-8BD5-5D3256E3AE20","classifica":"Multi Track","feature_co":15300},"geometry":{"type":"LineString","coordinates":[[-2.2072783880702254,53.76345931817345],[-2.2045085384036227,53.76147889585642],[-2.2036523050346815,53.76067224171289],[-2.2030359741352687,53.7598785669467],[-2.2016606233999383,53.757493850084494]]}},{"type":"Feature","properties":{"fid":75454,"id":"1DC262C5-A250-4485-A0F6-938842D72C70","classifica":"Multi Track","feature_co":15300},"geometry":{"type":"LineString","coordinates":[[-2.222498112737182,53.76936544831325],[-2.2228370890430105,53.76943123948988]]}},{"type":"Feature","properties":{"fid":78055,"id":"D72AD6D1-59DF-4C21-B811-173035C30F43","classifica":"Multi Track","feature_co":15300},"geometry":{"type":"LineString","coordinates":[[-2.197570756676242,53.753258855763356],[-2.199006460538174,53.7541497090022],[-2.2001823781577152,53.75518973162744],[-2.200851254975986,53.75602359984802],[-2.2016606233999383,53.757493850084494]]}},{"type":"Feature","properties":{"fid":79367,"id":"EEA8C86F-25B4-4A88-8189-439C2E82F4C9","classifica":"Multi Track","feature_co":15300},"geometry":{"type":"LineString","coordinates":[[-2.240113741849458,53.781664326910956],[-2.2403098708288787,53.78175372374402]]}},{"type":"Feature","properties":{"fid":82238,"id":"E4ADE915-3738-44BB-A076-1B502FA19195","classifica":"Multi Track","feature_co":15300},"geometry":{"type":"LineString","coordinates":[[-2.1966081668613633,53.752669746581205],[-2.1964308208571186,53.752559125302625]]}},{"type":"Feature","properties":{"fid":82527,"id":"39FAAFA7-16FD-4263-9BC6-C592B7FBF254","classifica":"Multi Track","feature_co":15300},"geometry":{"type":"LineString","coordinates":[[-2.2119120827272742,53.76672203864593],[-2.212293164186561,53.76693186307982]]}},{"type":"Feature","properties":{"fid":82927,"id":"9833C50E-21C7-4A8C-8FB5-F9CCEAC16C59","classifica":"Multi Track","feature_co":15300},"geometry":{"type":"LineString","coordinates":[[-2.2179432468261018,53.76864714323492],[-2.216384671187173,53.768374936300205],[-2.214766183616535,53.767952986294155]]}},{"type":"Feature","properties":{"fid":84537,"id":"A08408EF-95DE-44B8-A4C3-08B2D2FF15D0","classifica":"Multi Track","feature_co":15300},"geometry":{"type":"LineString","coordinates":[[-2.2342337273947033,53.77680042600089],[-2.2348361125419562,53.77741968870102]]}},{"type":"Feature","properties":{"fid":85299,"id":"4376795F-DADD-4680-AEC3-87B9B52078C0","classifica":"Multi Track","feature_co":15300},"geometry":{"type":"LineString","coordinates":[[-2.1929362687769673,53.75041406015306],[-2.194164206461061,53.751148824548274]]}},{"type":"Feature","properties":{"fid":88573,"id":"518B5123-8DF2-4ACF-A6A6-C765CE1FDB61","classifica":"Multi Track","feature_co":15300},"geometry":{"type":"LineString","coordinates":[[-2.184636742440842,53.7459086798032],[-2.183602685876774,53.74536703282904]]}},{"type":"Feature","properties":{"fid":91807,"id":"25C4A6A5-740D-4895-B409-0FBA16FDC68D","classifica":"Multi Track","feature_co":15300},"geometry":{"type":"LineString","coordinates":[[-2.2299599190801023,53.7725017425068],[-2.2334813423119226,53.77602676907007]]}},{"type":"Feature","properties":{"fid":94373,"id":"B07C636C-C86A-4BD5-90C8-6D83B7031469","classifica":"Multi Track","feature_co":15300},"geometry":{"type":"LineString","coordinates":[[-2.221343725264963,53.769165806536314],[-2.222498112737182,53.76936544831325]]}},{"type":"Feature","properties":{"fid":97849,"id":"3AA3A8D4-518C-4128-A060-7F7ACD3823B1","classifica":"Multi Track","feature_co":15300},"geometry":{"type":"LineString","coordinates":[[-2.2342337273947033,53.77680042600089],[-2.2334813423119226,53.77602676907007]]}},{"type":"Feature","properties":{"fid":100560,"id":"4A93A81A-F18A-4F74-B1D7-52A08DFB2395","classifica":"Multi Track","feature_co":15300},"geometry":{"type":"LineString","coordinates":[[-2.2228370890430105,53.76943123948988],[-2.223675872529688,53.76962156996268]]}},{"type":"Feature","properties":{"fid":101198,"id":"A4D30770-7900-4444-B9E6-0FD80C20F60E","classifica":"Multi Track","feature_co":15300},"geometry":{"type":"LineString","coordinates":[[-2.2181520157031294,53.768678850326104],[-2.2179432468261018,53.76864714323492]]}},{"type":"Feature","properties":{"fid":101435,"id":"7EA4C11C-6A13-46D8-9EE0-005270FC7822","classifica":"Multi Track","feature_co":15300},"geometry":{"type":"LineString","coordinates":[[-2.1916779622423896,53.749661086024624],[-2.1914918359718776,53.74954813457007]]}},{"type":"Feature","properties":{"fid":102564,"id":"27BCC670-5B43-4BD5-BA74-6524B07AA363","classifica":"Multi Track","feature_co":15300},"geometry":{"type":"LineString","coordinates":[[-2.183602685876774,53.74536703282904],[-2.182309184377028,53.744676480867746],[-2.1809777217942456,53.74413939831512],[-2.179501056219056,53.74367729938373],[-2.17592256852154,53.742722149762365]]}},{"type":"Feature","properties":{"fid":110747,"id":"D23B9A06-3D5A-4794-8B72-CD0321A72C84","classifica":"Multi Track","feature_co":15300},"geometry":{"type":"LineString","coordinates":[[-2.1907695513476373,53.74911192963372],[-2.19060778444994,53.749019250955385]]}},{"type":"Feature","properties":{"fid":63744,"id":"781B6268-BB52-4A87-AC62-6B8B8D2F190E","classifica":"Single Track","feature_co":15301},"geometry":{"type":"LineString","coordinates":[[-2.21571304541084,53.83429517280276],[-2.2153039932319754,53.834412661494376]]}},{"type":"Feature","properties":{"fid":77247,"id":"E1733029-621F-4F15-A172-91C74E833681","classifica":"Single Track","feature_co":15301},"geometry":{"type":"LineString","coordinates":[[-2.2153039932319754,53.834412661494376],[-2.2145265436916586,53.83463569785674]]}},{"type":"Feature","properties":{"fid":6414,"id":"E2CDC21D-A262-4283-9477-5C164B2B337B","classifica":"Single Track","feature_co":15301},"geometry":{"type":"LineString","coordinates":[[-2.2132415027541223,53.83508487069791],[-2.2145265436916586,53.83463569785674]]}},{"type":"Feature","properties":{"fid":46089,"id":"F368C852-BF58-42EB-962A-B1768DB933D7","classifica":"Single Track","feature_co":15301},"geometry":{"type":"LineString","coordinates":[[-2.212149898396636,53.83556936945953],[-2.211167387757781,53.83602661241424]]}},{"type":"Feature","properties":{"fid":52566,"id":"EA078568-67E4-4D09-A566-CF4F3153682F","classifica":"Single Track","feature_co":15301},"geometry":{"type":"LineString","coordinates":[[-2.211167387757781,53.83602661241424],[-2.209280411118998,53.83703279424424]]}},{"type":"Feature","properties":{"fid":28818,"id":"B9BBCE67-760A-4F61-971B-77823D6EB744","classifica":"Single Track","feature_co":15301},"geometry":{"type":"LineString","coordinates":[[-2.209280411118998,53.83703279424424],[-2.206961982045007,53.83848216698016]]}},{"type":"Feature","properties":{"fid":57192,"id":"01E14415-01E3-4E1D-B2D3-9FEF0216D556","classifica":"Single Track","feature_co":15301},"geometry":{"type":"LineString","coordinates":[[-2.206961982045007,53.83848216698016],[-2.2063990582240574,53.83884292394141]]}},{"type":"Feature","properties":{"fid":66677,"id":"BE92F3BC-116C-44C0-B1B5-9881A60664E2","classifica":"Single Track","feature_co":15301},"geometry":{"type":"LineString","coordinates":[[-2.2063990582240574,53.83884292394141],[-2.206204698319866,53.83896738158784]]}},{"type":"Feature","properties":{"fid":3838,"id":"9FBE7B18-2A8C-42E3-9FB0-F71D7FE26C57","classifica":"Single Track","feature_co":15301},"geometry":{"type":"LineString","coordinates":[[-2.2061819782853807,53.838982610249765],[-2.205841294213652,53.83920420864402]]}},{"type":"Feature","properties":{"fid":29202,"id":"C866F2FE-A1C9-4F1C-8602-BE586BAAAAF3","classifica":"Single Track","feature_co":15301},"geometry":{"type":"LineString","coordinates":[[-2.205841294213652,53.83920420864402],[-2.2045230614024764,53.84006193494183]]}},{"type":"Feature","properties":{"fid":60365,"id":"3FE716AB-4197-4F1D-9438-8E9FE8912269","classifica":"Single Track","feature_co":15301},"geometry":{"type":"LineString","coordinates":[[-2.2043997487452103,53.84014213772245],[-2.202669313827972,53.84125319589731]]}},{"type":"Feature","properties":{"fid":25747,"id":"0A2417F5-59EC-40C0-BE02-BFDE858BFE7E","classifica":"Single Track","feature_co":15301},"geometry":{"type":"LineString","coordinates":[[-2.202669313827972,53.84125319589731],[-2.2019391673455493,53.84171371052005]]}},{"type":"Feature","properties":{"fid":47305,"id":"4C2AEFFB-EA7C-436E-9B2B-D0872BE914C0","classifica":"Single Track","feature_co":15301},"geometry":{"type":"LineString","coordinates":[[-2.1997752299652245,53.842840466072055],[-2.1997439843913433,53.84285355061691]]}},{"type":"Feature","properties":{"fid":22996,"id":"2F0C223B-0B90-4EA3-8FBE-8B9DDF237A06","classifica":"Single Track","feature_co":15301},"geometry":{"type":"LineString","coordinates":[[-2.197215577339749,53.843873730847335],[-2.1997439843913433,53.84285355061691]]}},{"type":"Feature","properties":{"fid":4416,"id":"68CF8E9A-6EF4-42EA-A187-5F2030CBEA11","classifica":"Single Track","feature_co":15301},"geometry":{"type":"LineString","coordinates":[[-2.19561756846539,53.84451440117042],[-2.1971506394707765,53.843897386001615]]}},{"type":"Feature","properties":{"fid":206,"id":"F14A04F5-81CF-42B0-A4B0-30C0E502DAB4","classifica":"Single Track","feature_co":15301},"geometry":{"type":"LineString","coordinates":[[-2.19561756846539,53.84451440117042],[-2.194370733142414,53.845018943498204]]}},{"type":"Feature","properties":{"fid":68261,"id":"B6241DC8-84ED-4B23-BB19-572D22752457","classifica":"Single Track","feature_co":15301},"geometry":{"type":"LineString","coordinates":[[-2.1938860416391988,53.84521575476802],[-2.194275462814124,53.84505738643973]]}},{"type":"Feature","properties":{"fid":75646,"id":"8EF29351-A6BF-44B1-8EC1-91B91039F559","classifica":"Single Track","feature_co":15301},"geometry":{"type":"LineString","coordinates":[[-2.193370863101258,53.845427173665534],[-2.1938860416391988,53.84521575476802]]}},{"type":"Feature","properties":{"fid":37343,"id":"4B71FA6B-89F0-4D5D-8C22-76599B3967EE","classifica":"Single Track","feature_co":15301},"geometry":{"type":"LineString","coordinates":[[-2.193031351704553,53.845566404313296],[-2.193370863101258,53.845427173665534]]}},{"type":"Feature","properties":{"fid":43976,"id":"F4E07319-BDDA-4F39-9E80-6FFC95EE6640","classifica":"Single Track","feature_co":15301},"geometry":{"type":"LineString","coordinates":[[-2.1906238874430843,53.846548321142464],[-2.1888831663921047,53.847252857501694]]}},{"type":"Feature","properties":{"fid":83568,"id":"FBA59185-0BFF-42BA-BFFE-4FB0834A66F3","classifica":"Single Track","feature_co":15301},"geometry":{"type":"LineString","coordinates":[[-2.193031351704553,53.845566404313296],[-2.19068002285196,53.84652585196992]]}},{"type":"Feature","properties":{"fid":86419,"id":"C2A57ABA-4304-491E-9C51-C3C69DBF67E8","classifica":"Single Track","feature_co":15301},"geometry":{"type":"LineString","coordinates":[[-2.2043997487452103,53.84014213772245],[-2.2045230614024764,53.84006193494183]]}},{"type":"Feature","properties":{"fid":87276,"id":"134109E6-5BA9-4258-9C89-D879763D52D0","classifica":"Single Track","feature_co":15301},"geometry":{"type":"LineString","coordinates":[[-2.2124760032583155,53.8354217493776],[-2.212149898396636,53.83556936945953]]}},{"type":"Feature","properties":{"fid":88160,"id":"8D39CBF6-797C-41FE-B3C6-3A6A8D1CB020","classifica":"Single Track","feature_co":15301},"geometry":{"type":"LineString","coordinates":[[-2.2132415027541223,53.83508487069791],[-2.2124760032583155,53.8354217493776]]}},{"type":"Feature","properties":{"fid":91995,"id":"69D2E566-F5FE-46F3-BA70-80F2BC467E9A","classifica":"Single Track","feature_co":15301},"geometry":{"type":"LineString","coordinates":[[-2.2019391673455493,53.84171371052005],[-2.20004183729386,53.84272021256438]]}},{"type":"Feature","properties":{"fid":96572,"id":"DD2850B1-2533-4D79-8655-DD4970EE79EE","classifica":"Single Track","feature_co":15301},"geometry":{"type":"LineString","coordinates":[[-2.194370733142414,53.845018943498204],[-2.194275462814124,53.84505738643973]]}},{"type":"Feature","properties":{"fid":96659,"id":"A2606DC7-4700-44F4-8F58-C3DA3C98A31B","classifica":"Single Track","feature_co":15301},"geometry":{"type":"LineString","coordinates":[[-2.2192629711438263,53.83326527566689],[-2.21571304541084,53.83429517280276]]}},{"type":"Feature","properties":{"fid":103848,"id":"344494A9-A9DD-4658-9577-413B5F643F4B","classifica":"Single Track","feature_co":15301},"geometry":{"type":"LineString","coordinates":[[-2.20004183729386,53.84272021256438],[-2.199985576741309,53.8427461916299]]}},{"type":"Feature","properties":{"fid":48973,"id":"96BDA2BB-2FB0-4A47-923F-1D3C866C17CA","classifica":"Single Track","feature_co":15301},"geometry":{"type":"LineString","coordinates":[[-1.9520027124518258,53.81495030841422],[-1.9517120356032307,53.81533164014611]]}},{"type":"Feature","properties":{"fid":14846,"id":"E4E1484E-A662-4D71-9265-722B94601A62","classifica":"Single Track","feature_co":15301},"geometry":{"type":"LineString","coordinates":[[-1.9511118077189542,53.8158533274046],[-1.9508388593532942,53.815997382833935]]}},{"type":"Feature","properties":{"fid":43024,"id":"29520A28-0B94-45C1-8F79-00C2771CFCB2","classifica":"Single Track","feature_co":15301},"geometry":{"type":"LineString","coordinates":[[-1.950349372161874,53.81622916074606],[-1.9508465279715752,53.81593339190597]]}},{"type":"Feature","properties":{"fid":35146,"id":"7D5B2E7B-62D3-4F55-BB9B-A030AFACDC65","classifica":"Single Track","feature_co":15301},"geometry":{"type":"LineString","coordinates":[[-1.9508388593532942,53.815997382833935],[-1.9500940165885887,53.81639074817442]]}},{"type":"Feature","properties":{"fid":20094,"id":"BFD5B2A6-AAD6-4882-AD0B-68965E8F8985","classifica":"Single Track","feature_co":15301},"geometry":{"type":"LineString","coordinates":[[-1.950349372161874,53.81622916074606],[-1.950563909738248,53.81603295251922]]}},{"type":"Feature","properties":{"fid":8167,"id":"88DBD688-FCA2-4E67-9F23-51D5AE8785CB","classifica":"Single Track","feature_co":15301},"geometry":{"type":"LineString","coordinates":[[-1.9500940165885887,53.81639074817442],[-1.950349372161874,53.81622916074606]]}},{"type":"Feature","properties":{"fid":42176,"id":"05A0964A-A21C-4328-B453-5832EC1566A8","classifica":"Single Track","feature_co":15301},"geometry":{"type":"LineString","coordinates":[[-1.9498532807626483,53.81651800725039],[-1.9500940165885887,53.81639074817442]]}},{"type":"Feature","properties":{"fid":15434,"id":"7118949B-229F-4068-8EC4-817873C3F628","classifica":"Single Track","feature_co":15301},"geometry":{"type":"LineString","coordinates":[[-1.9498532807626483,53.81651800725039],[-1.949710583563536,53.81658302042522]]}},{"type":"Feature","properties":{"fid":34322,"id":"AC665924-E6B3-4679-AB0B-E02715BEE6CC","classifica":"Single Track","feature_co":15301},"geometry":{"type":"LineString","coordinates":[[-1.948117723681453,53.83231308639612],[-1.9482938338934561,53.83205727639343]]}},{"type":"Feature","properties":{"fid":58873,"id":"62E17758-9F04-4E7F-BF83-19C68B90DD27","classifica":"Multi Track","feature_co":15300},"geometry":{"type":"LineString","coordinates":[[-1.9484508183849738,53.82656024866457],[-1.94796124724419,53.82563439906293]]}},{"type":"Feature","properties":{"fid":61218,"id":"AE58F9FE-833B-4C36-94E3-CE8EABDDA9EC","classifica":"Single Track","feature_co":15301},"geometry":{"type":"LineString","coordinates":[[-1.949094472418053,53.82885711317063],[-1.948956327709192,53.82763469895942]]}},{"type":"Feature","properties":{"fid":68631,"id":"809100BB-7B2E-4711-908C-4228218E2149","classifica":"Multi Track","feature_co":15300},"geometry":{"type":"LineString","coordinates":[[-1.9509417494397572,53.816071844780915],[-1.9506660914144724,53.816193428888674]]}},{"type":"Feature","properties":{"fid":71384,"id":"A7974C6C-C411-490E-BE14-B2C12AAC7144","classifica":"Single Track","feature_co":15301},"geometry":{"type":"LineString","coordinates":[[-1.9491425465176369,53.83019057955898],[-1.9491011308254198,53.8290050569697]]}},{"type":"Feature","properties":{"fid":73733,"id":"F0B37A39-2FE6-41E0-9D89-1A86BF227CCB","classifica":"Single Track","feature_co":15301},"geometry":{"type":"LineString","coordinates":[[-1.9490325632316279,53.83080548572806],[-1.949046287854234,53.830763787640855]]}},{"type":"Feature","properties":{"fid":73932,"id":"F0654591-E93D-4058-8CFA-6C676B1D0E01","classifica":"Single Track","feature_co":15301},"geometry":{"type":"LineString","coordinates":[[-1.9506660914144724,53.816193428888674],[-1.9499213498224695,53.81649718354379]]}},{"type":"Feature","properties":{"fid":78139,"id":"01EAF7C8-D64D-426D-9029-36D2566F41BE","classifica":"Single Track","feature_co":15301},"geometry":{"type":"LineString","coordinates":[[-1.9517120356032307,53.81533164014611],[-1.9508465279715752,53.81593339190597]]}},{"type":"Feature","properties":{"fid":84385,"id":"314D33CD-B5FD-44AC-AFF3-106BA0A77959","classifica":"Single Track","feature_co":15301},"geometry":{"type":"LineString","coordinates":[[-1.9479613976474275,53.81767786139787],[-1.947979591847981,53.81765885998743],[-1.9485335929304581,53.817233878920405],[-1.949710583563536,53.81658302042522]]}},{"type":"Feature","properties":{"fid":85294,"id":"CBABF973-E095-4B0B-B8F7-689F9403D0A0","classifica":"Single Track","feature_co":15301},"geometry":{"type":"LineString","coordinates":[[-1.9517120356032307,53.81533164014611],[-1.9520089219529464,53.81429733770797]]}},{"type":"Feature","properties":{"fid":85582,"id":"2CDE6F29-5A30-423F-A36E-9D94CB26D5D5","classifica":"Multi Track","feature_co":15300},"geometry":{"type":"LineString","coordinates":[[-1.948956327709192,53.82763469895942],[-1.9484773514547071,53.82660376150286]]}},{"type":"Feature","properties":{"fid":87733,"id":"6072787D-98CC-4154-A33B-ABD99DFAE82C","classifica":"Single Track","feature_co":15301},"geometry":{"type":"LineString","coordinates":[[-1.9527756705454289,53.814502025887144],[-1.952535307195609,53.81485533698423]]}},{"type":"Feature","properties":{"fid":92578,"id":"06CEA605-08FF-42AA-B95B-BC1C240366B9","classifica":"Multi Track","feature_co":15300},"geometry":{"type":"LineString","coordinates":[[-1.952535307195609,53.81485533698423],[-1.9520118992950226,53.81541984153355],[-1.9509417494397572,53.816071844780915]]}},{"type":"Feature","properties":{"fid":92967,"id":"A1CECAFC-6C26-4407-BEF2-B73E9BEE9698","classifica":"Single Track","feature_co":15301},"geometry":{"type":"LineString","coordinates":[[-1.9479611146254479,53.83260424439328],[-1.948117723681453,53.83231308639612]]}},{"type":"Feature","properties":{"fid":101818,"id":"81425A75-D0B5-4BB8-B745-7CB31CD3F9D4","classifica":"Single Track","feature_co":15301},"geometry":{"type":"LineString","coordinates":[[-1.9499213498224695,53.81649718354379],[-1.9498532807626483,53.81651800725039]]}},{"type":"Feature","properties":{"fid":105512,"id":"4A6555AD-06D7-482B-AC28-18063CDA266B","classifica":"Single Track","feature_co":15301},"geometry":{"type":"LineString","coordinates":[[-1.9490554365748298,53.83073682778588],[-1.9491425465176369,53.83019057955898]]}},{"type":"Feature","properties":{"fid":106887,"id":"29450A1D-B7CF-454C-B4E0-146F49E8864C","classifica":"Single Track","feature_co":15301},"geometry":{"type":"LineString","coordinates":[[-1.9482938338934561,53.83205727639343],[-1.9487613716386274,53.83141888528392],[-1.9490325632316279,53.83080548572806]]}},{"type":"Feature","properties":{"fid":64250,"id":"0C113C50-29DE-47F1-BD24-380420561D3A","classifica":"Multi Track","feature_co":15300},"geometry":{"type":"LineString","coordinates":[[-2.2504365041252257,53.785958059813474],[-2.2506917630806824,53.786095036102566]]}},{"type":"Feature","properties":{"fid":23069,"id":"5B95EE87-86C7-4D21-9E49-F7C8AE72B25A","classifica":"Single Track","feature_co":15301},"geometry":{"type":"LineString","coordinates":[[-2.2464397273862518,53.79292763930722],[-2.2506917074165527,53.79217226957409]]}},{"type":"Feature","properties":{"fid":95972,"id":"3B50B143-3898-4418-BAEF-D768ECD7119E","classifica":"Multi Track","feature_co":15300},"geometry":{"type":"LineString","coordinates":[[-2.2488793092643253,53.78483322132828],[-2.2504365041252257,53.785958059813474]]}},{"type":"Feature","properties":{"fid":18767,"id":"7FBDBC9F-A6FF-46BD-A0B3-41670AEC295F","classifica":"Multi Track","feature_co":15300},"geometry":{"type":"LineString","coordinates":[[-2.248555651573199,53.78461404683904],[-2.2471683245597913,53.78389203515077]]}},{"type":"Feature","properties":{"fid":80389,"id":"DFAE9912-4113-4B6C-A8CD-5F358B49DDC5","classifica":"Multi Track","feature_co":15300},"geometry":{"type":"LineString","coordinates":[[-2.2460780306538566,53.78347786577477],[-2.2471683245597913,53.78389203515077]]}},{"type":"Feature","properties":{"fid":9698,"id":"12AFE2B2-4462-43CE-83E1-62622566F747","classifica":"Single Track","feature_co":15301},"geometry":{"type":"LineString","coordinates":[[-2.2459091232304265,53.79307235768102],[-2.2464397273862518,53.79292763930722]]}},{"type":"Feature","properties":{"fid":84328,"id":"1147DFDC-9BF6-46BA-B674-35EA251BFC6A","classifica":"Multi Track","feature_co":15300},"geometry":{"type":"LineString","coordinates":[[-2.2460780306538566,53.78347786577477],[-2.2448658995018698,53.783117144572515]]}},{"type":"Feature","properties":{"fid":1086,"id":"EC4E8A2B-603F-45F4-9EC2-37E7A4E5D596","classifica":"Single Track","feature_co":15301},"geometry":{"type":"LineString","coordinates":[[-2.2456714822101564,53.79316362391707],[-2.2459091232304265,53.79307235768102]]}},{"type":"Feature","properties":{"fid":4415,"id":"DEB42337-8493-402B-ACA6-31711E3DAA5F","classifica":"Single Track","feature_co":15301},"geometry":{"type":"LineString","coordinates":[[-2.2452590299266526,53.79336993440287],[-2.2456714822101564,53.79316362391707]]}},{"type":"Feature","properties":{"fid":35220,"id":"DC4E59BC-50F8-438D-B53C-98055C4C9665","classifica":"Single Track","feature_co":15301},"geometry":{"type":"LineString","coordinates":[[-2.2439873835360116,53.79449261381988],[-2.2445901889165154,53.79381243219232],[-2.2452590299266526,53.79336993440287]]}},{"type":"Feature","properties":{"fid":107586,"id":"7A3088E8-6F97-47D8-92BC-56138DD2B351","classifica":"Multi Track","feature_co":15300},"geometry":{"type":"LineString","coordinates":[[-2.2447276111641656,53.7830857894142],[-2.241993944492531,53.782385695214835],[-2.2403098708288787,53.78175372374402]]}},{"type":"Feature","properties":{"fid":21823,"id":"4A30FC06-4108-43D9-8E50-73B121BEFCA6","classifica":"Multi Track","feature_co":15300},"geometry":{"type":"LineString","coordinates":[[-2.0842690740972363,53.65335176907177],[-2.0848998997504915,53.65180760258597],[-2.085627866408753,53.65055124470323]]}},{"type":"Feature","properties":{"fid":39396,"id":"699A4AD7-86A3-4B81-8C98-D24B52107444","classifica":"Multi Track","feature_co":15300},"geometry":{"type":"LineString","coordinates":[[-2.0842690740972363,53.65335176907177],[-2.0842189908400703,53.65350127778806]]}},{"type":"Feature","properties":{"fid":22988,"id":"7106D819-C0FB-40A2-8DF5-BEC945A73B1D","classifica":"Multi Track","feature_co":15300},"geometry":{"type":"LineString","coordinates":[[-2.084007887359409,53.65423872658096],[-2.083979233866338,53.65436161509342]]}},{"type":"Feature","properties":{"fid":27316,"id":"0CE406EA-691D-41DA-BDD0-6884AC2843FD","classifica":"Multi Track","feature_co":15300},"geometry":{"type":"LineString","coordinates":[[-2.0831880597579033,53.66048086589435],[-2.0830498962254698,53.65963400720166]]}},{"type":"Feature","properties":{"fid":67794,"id":"7C318D0E-84D6-4EFE-89C8-ECBA17201CD0","classifica":"Multi Track","feature_co":15300},"geometry":{"type":"LineString","coordinates":[[-2.0830229289628583,53.658619711254254],[-2.0830126964701483,53.65918606282797]]}},{"type":"Feature","properties":{"fid":85376,"id":"42A8CF57-A7FF-4707-B350-611371B7805E","classifica":"Multi Track","feature_co":15300},"geometry":{"type":"LineString","coordinates":[[-2.083913084249299,53.65464991237124],[-2.083686488288898,53.655515362926494]]}},{"type":"Feature","properties":{"fid":88073,"id":"FBF46ACD-6479-45C0-803D-E49E0F3239F0","classifica":"Multi Track","feature_co":15300},"geometry":{"type":"LineString","coordinates":[[-2.084007887359409,53.65423872658096],[-2.0842189908400703,53.65350127778806]]}},{"type":"Feature","properties":{"fid":89285,"id":"B30C3C23-F1D3-46CF-87E8-87D32AF34EBE","classifica":"Multi Track","feature_co":15300},"geometry":{"type":"LineString","coordinates":[[-2.0830213520179415,53.65858735494502],[-2.0833873067035493,53.65655981814743]]}},{"type":"Feature","properties":{"fid":104381,"id":"64F1C99A-1A55-4879-9160-7905AE75885F","classifica":"Multi Track","feature_co":15300},"geometry":{"type":"LineString","coordinates":[[-2.083686488288898,53.655515362926494],[-2.083397055479945,53.656516218705335]]}},{"type":"Feature","properties":{"fid":110225,"id":"AF507CA7-65D3-45AD-81DA-9104C0F8FD35","classifica":"Multi Track","feature_co":15300},"geometry":{"type":"LineString","coordinates":[[-2.083979233866338,53.65436161509342],[-2.0839168229362763,53.6546278887158]]}},{"type":"Feature","properties":{"fid":83786,"id":"DE40AAFA-2936-442C-9940-F19363ABD54D","classifica":"Multi Track","feature_co":15300},"geometry":{"type":"LineString","coordinates":[[-2.0918027740912124,53.683685997069006],[-2.0917355305364853,53.68360776211194]]}},{"type":"Feature","properties":{"fid":67320,"id":"42DAE633-8C88-42A5-8D5F-6D523070E895","classifica":"Multi Track","feature_co":15300},"geometry":{"type":"LineString","coordinates":[[-2.0932044738516913,53.68504409655277],[-2.092039274564955,53.683964626879366]]}},{"type":"Feature","properties":{"fid":29682,"id":"5BFDCA48-880D-49FA-A647-CF3456A72D11","classifica":"Multi Track","feature_co":15300},"geometry":{"type":"LineString","coordinates":[[-2.093794400122014,53.68546427921267],[-2.093902207435821,53.68553277393227]]}},{"type":"Feature","properties":{"fid":80651,"id":"AE396261-3436-460A-822F-EB596C315105","classifica":"Multi Track","feature_co":15300},"geometry":{"type":"LineString","coordinates":[[-2.093902207435821,53.68553277393227],[-2.0947821137052154,53.68609069115122]]}},{"type":"Feature","properties":{"fid":11969,"id":"B6EF60C3-6C1A-4F31-96E1-9C6A195015E0","classifica":"Multi Track","feature_co":15300},"geometry":{"type":"LineString","coordinates":[[-2.0947821137052154,53.68609069115122],[-2.0962233163631763,53.68703293276369]]}},{"type":"Feature","properties":{"fid":60575,"id":"F731E6CD-DAAC-4A10-BC4D-68077DAE980C","classifica":"Multi Track","feature_co":15300},"geometry":{"type":"LineString","coordinates":[[-2.0963579919417406,53.68712728941661],[-2.0962233163631763,53.68703293276369]]}},{"type":"Feature","properties":{"fid":27934,"id":"D1BF955D-EC85-49F0-9628-74B7A10AF6CD","classifica":"Multi Track","feature_co":15300},"geometry":{"type":"LineString","coordinates":[[-2.0963579919417406,53.68712728941661],[-2.0978618849817114,53.68830036551901],[-2.09886449963114,53.68922127214346]]}},{"type":"Feature","properties":{"fid":15522,"id":"90108E31-1241-466A-9B37-C2D341EF99C2","classifica":"Multi Track","feature_co":15300},"geometry":{"type":"LineString","coordinates":[[-2.09886449963114,53.68922127214346],[-2.099209195208071,53.68956343389555]]}},{"type":"Feature","properties":{"fid":69032,"id":"D9CAA2C0-9E3E-497D-9CD0-2BC28368EAA2","classifica":"Multi Track","feature_co":15300},"geometry":{"type":"LineString","coordinates":[[-2.099209195208071,53.68956343389555],[-2.0993318510867423,53.68969159249179]]}},{"type":"Feature","properties":{"fid":68804,"id":"04C425B9-5C8D-4A23-B14C-E99CA6B107E4","classifica":"Multi Track","feature_co":15300},"geometry":{"type":"LineString","coordinates":[[-2.0993318510867423,53.68969159249179],[-2.099747361708822,53.69013561907801]]}},{"type":"Feature","properties":{"fid":103539,"id":"DB697A59-EC14-4E31-AEC7-0C215CD49402","classifica":"Multi Track","feature_co":15300},"geometry":{"type":"LineString","coordinates":[[-2.099747361708822,53.69013561907801],[-2.1007917959287106,53.69141060634142]]}},{"type":"Feature","properties":{"fid":98624,"id":"4266B9BD-E712-4ACE-A00B-08E170A6A2AA","classifica":"Multi Track","feature_co":15300},"geometry":{"type":"LineString","coordinates":[[-2.1009037881513697,53.69157130928143],[-2.101894481130409,53.69288785712816]]}},{"type":"Feature","properties":{"fid":902,"id":"C820B0B9-54CB-479B-8BF7-6943418B0DC7","classifica":"Multi Track","feature_co":15300},"geometry":{"type":"LineString","coordinates":[[-2.1036086444437045,53.695172330716886],[-2.103905963054044,53.69555128110209]]}},{"type":"Feature","properties":{"fid":113469,"id":"9CB4BE90-211D-468C-BFF8-643F3FCDC5DC","classifica":"Multi Track","feature_co":15300},"geometry":{"type":"LineString","coordinates":[[-2.103905963054044,53.69555128110209],[-2.104284817460759,53.69601159190773]]}},{"type":"Feature","properties":{"fid":110068,"id":"02213528-7402-4803-92BA-344A53DA0937","classifica":"Multi Track","feature_co":15300},"geometry":{"type":"LineString","coordinates":[[-2.1052561860273893,53.697087246523104],[-2.104316099549851,53.696045180148175]]}},{"type":"Feature","properties":{"fid":48722,"id":"DDF44808-0988-4A6D-8101-5AA6A3230542","classifica":"Multi Track","feature_co":15300},"geometry":{"type":"LineString","coordinates":[[-2.1052561860273893,53.697087246523104],[-2.1054218827467013,53.697270817469104]]}},{"type":"Feature","properties":{"fid":104634,"id":"3F15D039-0485-4118-BC51-9B21470805C0","classifica":"Multi Track","feature_co":15300},"geometry":{"type":"LineString","coordinates":[[-2.1054218827467013,53.697270817469104],[-2.1055300517059075,53.69740356628534]]}},{"type":"Feature","properties":{"fid":8723,"id":"F48EBAA5-3625-440E-B26C-584C54067132","classifica":"Multi Track","feature_co":15300},"geometry":{"type":"LineString","coordinates":[[-2.1055300517059075,53.69740356628534],[-2.1063035489865336,53.6984281545256]]}},{"type":"Feature","properties":{"fid":85979,"id":"F8D9D183-06A4-4078-BE3F-BC6197CDDEED","classifica":"Multi Track","feature_co":15300},"geometry":{"type":"LineString","coordinates":[[-2.1063035489865336,53.6984281545256],[-2.1070219428451264,53.69986632982601]]}},{"type":"Feature","properties":{"fid":23048,"id":"7C5BAA4C-804C-405B-A0EF-E7487E0FC7D0","classifica":"Multi Track","feature_co":15300},"geometry":{"type":"LineString","coordinates":[[-2.107080763179832,53.70000586245134],[-2.1074439467818187,53.70100285683668]]}},{"type":"Feature","properties":{"fid":85263,"id":"48190DE1-002E-406A-91B0-2A75D386E4EF","classifica":"Multi Track","feature_co":15300},"geometry":{"type":"LineString","coordinates":[[-2.1074439467818187,53.70100285683668],[-2.107655613094142,53.70209391223263]]}},{"type":"Feature","properties":{"fid":12815,"id":"7BD64215-70C1-4C0E-A9F5-54C7EAFD02C0","classifica":"Multi Track","feature_co":15300},"geometry":{"type":"LineString","coordinates":[[-2.107655613094142,53.70209391223263],[-2.1076751660790505,53.70239499611329]]}},{"type":"Feature","properties":{"fid":6763,"id":"F00388AD-A6C2-480C-96D3-B4DF2FAE3465","classifica":"Multi Track","feature_co":15300},"geometry":{"type":"LineString","coordinates":[[-2.1076751660790505,53.70239499611329],[-2.1076779349544807,53.7025891366641]]}},{"type":"Feature","properties":{"fid":98243,"id":"53C1EF78-5ECD-4113-BC38-1720507EEA17","classifica":"Multi Track","feature_co":15300},"geometry":{"type":"LineString","coordinates":[[-2.1076779349544807,53.7025891366641],[-2.107542757972417,53.70392812616658],[-2.1071809989057977,53.70516638225885]]}},{"type":"Feature","properties":{"fid":65181,"id":"1E4E93B1-3530-489A-A9A4-AE9EBC0D1244","classifica":"Multi Track","feature_co":15300},"geometry":{"type":"LineString","coordinates":[[-2.1067383109717936,53.706100911576094],[-2.1071809989057977,53.70516638225885]]}},{"type":"Feature","properties":{"fid":97787,"id":"93B3D3A2-85EF-4327-97D2-0F24EC5FCE73","classifica":"Multi Track","feature_co":15300},"geometry":{"type":"LineString","coordinates":[[-2.1065175313039117,53.706494787242235],[-2.1067383109717936,53.706100911576094]]}},{"type":"Feature","properties":{"fid":111302,"id":"C6430D32-730B-4A34-8185-F306BF5ECF64","classifica":"Multi Track","feature_co":15300},"geometry":{"type":"LineString","coordinates":[[-2.1065175313039117,53.706494787242235],[-2.1054994543924193,53.708095841076336]]}},{"type":"Feature","properties":{"fid":26381,"id":"EBF38EF5-080A-400A-A328-A14B9DBD5E5D","classifica":"Multi Track","feature_co":15300},"geometry":{"type":"LineString","coordinates":[[-2.1054994543924193,53.708095841076336],[-2.1053473424444777,53.70833308120014]]}},{"type":"Feature","properties":{"fid":56179,"id":"E2466CA2-F7FC-4025-AC58-1F3CF6116E3F","classifica":"Multi Track","feature_co":15300},"geometry":{"type":"LineString","coordinates":[[-2.1053473424444777,53.70833308120014],[-2.1050533747661784,53.70879137325384]]}},{"type":"Feature","properties":{"fid":85690,"id":"D6114FF4-67AE-4486-96D7-F41556AA6439","classifica":"Multi Track","feature_co":15300},"geometry":{"type":"LineString","coordinates":[[-2.1050533747661784,53.70879137325384],[-2.103845895678066,53.710611618494355]]}},{"type":"Feature","properties":{"fid":108812,"id":"7FA58F46-EF7A-4549-9021-6020EB20EF63","classifica":"Multi Track","feature_co":15300},"geometry":{"type":"LineString","coordinates":[[-2.103845895678066,53.710611618494355],[-2.10380119347004,53.710669450754416]]}},{"type":"Feature","properties":{"fid":5532,"id":"3792282D-FB85-4A2D-A506-86A4CF194C66","classifica":"Multi Track","feature_co":15300},"geometry":{"type":"LineString","coordinates":[[-2.10380119347004,53.710669450754416],[-2.103265808157842,53.71129773268759]]}},{"type":"Feature","properties":{"fid":67801,"id":"9DB03BC6-93FA-4E20-B7BE-F2733C677266","classifica":"Multi Track","feature_co":15300},"geometry":{"type":"LineString","coordinates":[[-2.103265808157842,53.71129773268759],[-2.103243139729875,53.71132112130658]]}},{"type":"Feature","properties":{"fid":29972,"id":"7F93B851-605F-4FA8-AD72-F7498102A13F","classifica":"Multi Track","feature_co":15300},"geometry":{"type":"LineString","coordinates":[[-2.0213764691175635,53.740527894651436],[-2.022774183765279,53.74055801374017]]}},{"type":"Feature","properties":{"fid":53595,"id":"797D9616-C9A4-4231-8581-23BA810765BB","classifica":"Multi Track","feature_co":15300},"geometry":{"type":"LineString","coordinates":[[-2.019910485604655,53.74040141896248],[-2.0213764691175635,53.740527894651436]]}},{"type":"Feature","properties":{"fid":65586,"id":"CCE64CC5-23EE-490D-A354-1A7829C66BF6","classifica":"Multi Track","feature_co":15300},"geometry":{"type":"LineString","coordinates":[[-2.0170275921427536,53.7399675673011],[-2.017967785707,53.74012633657713]]}},{"type":"Feature","properties":{"fid":9653,"id":"4BDB0F29-60CF-41A3-B1C0-B59D30B27423","classifica":"Multi Track","feature_co":15300},"geometry":{"type":"LineString","coordinates":[[-2.015835255683104,53.73974114481282],[-2.0170275921427536,53.7399675673011]]}},{"type":"Feature","properties":{"fid":40205,"id":"A3DA862D-6CCA-4038-9FAF-B1393D707E3D","classifica":"Multi Track","feature_co":15300},"geometry":{"type":"LineString","coordinates":[[-2.0106770150347235,53.73822921855181],[-2.0139712353168777,53.73928415890806],[-2.015608885716535,53.73968922411371]]}},{"type":"Feature","properties":{"fid":62431,"id":"6B5420B2-E3BD-4458-992A-A7399DA3B3F1","classifica":"Multi Track","feature_co":15300},"geometry":{"type":"LineString","coordinates":[[-2.010544654743547,53.73818455997469],[-2.0106770150347235,53.73822921855181]]}},{"type":"Feature","properties":{"fid":71911,"id":"112EA993-75FE-4736-B365-F13E326DAC94","classifica":"Multi Track","feature_co":15300},"geometry":{"type":"LineString","coordinates":[[-2.0081450857454612,53.73737555854916],[-2.008628115345704,53.737538387092265]]}},{"type":"Feature","properties":{"fid":80604,"id":"998BFFD0-0768-4918-86A3-91F5E9F70BF3","classifica":"Multi Track","feature_co":15300},"geometry":{"type":"LineString","coordinates":[[-2.007518334661136,53.7371603371588],[-2.0081450857454612,53.73737555854916]]}},{"type":"Feature","properties":{"fid":19051,"id":"4F9E74A4-5BDF-4F2F-8ED0-E36D3CF2E6CE","classifica":"Multi Track","feature_co":15300},"geometry":{"type":"LineString","coordinates":[[-2.007379763604816,53.73710497970599],[-2.007518334661136,53.7371603371588]]}},{"type":"Feature","properties":{"fid":74283,"id":"AEA8B2C9-5FB7-4577-B21B-4EA09EE91E62","classifica":"Multi Track","feature_co":15300},"geometry":{"type":"LineString","coordinates":[[-2.0066901059167357,53.736880230639635],[-2.007379763604816,53.73710497970599]]}},{"type":"Feature","properties":{"fid":64601,"id":"08EFD59E-7F98-415C-8161-2641943888EF","classifica":"Single Track","feature_co":15301},"geometry":{"type":"LineString","coordinates":[[-2.007379763604816,53.73710497970599],[-2.0049213364242258,53.73621592370495]]}},{"type":"Feature","properties":{"fid":45442,"id":"944D9243-4E20-4F64-82CA-6F8F2279572A","classifica":"Multi Track","feature_co":15300},"geometry":{"type":"LineString","coordinates":[[-2.0064223703007786,53.73678901719166],[-2.0066901059167357,53.736880230639635]]}},{"type":"Feature","properties":{"fid":23368,"id":"9AD95690-A3B8-4980-B539-83DA0A3E1F77","classifica":"Multi Track","feature_co":15300},"geometry":{"type":"LineString","coordinates":[[-2.0064223703007786,53.73678901719166],[-1.9986899205153743,53.73413736495792]]}},{"type":"Feature","properties":{"fid":69001,"id":"524A710B-6F9B-47F5-A7F7-BBEC7066FBF5","classifica":"Single Track","feature_co":15301},"geometry":{"type":"LineString","coordinates":[[-2.0049213364242258,53.73621592370495],[-2.001911515351992,53.73520351237494]]}},{"type":"Feature","properties":{"fid":56319,"id":"34E0533B-24FD-432B-B526-203FA21B60FE","classifica":"Multi Track","feature_co":15300},"geometry":{"type":"LineString","coordinates":[[-1.9961407451325257,53.73327742863007],[-1.9952640117898632,53.73298088324701]]}},{"type":"Feature","properties":{"fid":41070,"id":"91BEC0F5-7F6D-4CBF-BD41-CE7D4983AAB9","classifica":"Multi Track","feature_co":15300},"geometry":{"type":"LineString","coordinates":[[-1.995212172143248,53.73296326471669],[-1.9952640117898632,53.73298088324701]]}},{"type":"Feature","properties":{"fid":32044,"id":"3104A004-6F74-4A71-999B-614993C59F69","classifica":"Multi Track","feature_co":15300},"geometry":{"type":"LineString","coordinates":[[-1.9887216467044342,53.7307515127556],[-1.9904591776537741,53.731340826944226]]}},{"type":"Feature","properties":{"fid":56731,"id":"DCEB3ED1-1A92-481B-BB68-392B97C080FF","classifica":"Multi Track","feature_co":15300},"geometry":{"type":"LineString","coordinates":[[-1.9879505018436703,53.73049797619355],[-1.9887216467044342,53.7307515127556]]}},{"type":"Feature","properties":{"fid":58080,"id":"385F0AD3-78B2-45D4-A887-C3603772CB2F","classifica":"Multi Track","feature_co":15300},"geometry":{"type":"LineString","coordinates":[[-1.9879233724754564,53.73048916522648],[-1.9858335069077688,53.729898155976954]]}},{"type":"Feature","properties":{"fid":77916,"id":"734E63CC-0BA6-4847-A27C-6EDB058999E9","classifica":"Multi Track","feature_co":15300},"geometry":{"type":"LineString","coordinates":[[-1.9858335069077688,53.729898155976954],[-1.9829499379734095,53.7292786892847]]}},{"type":"Feature","properties":{"fid":73723,"id":"D2D809BB-0FD9-47B3-9211-44EE97E04E52","classifica":"Multi Track","feature_co":15300},"geometry":{"type":"LineString","coordinates":[[-1.9829499379734095,53.7292786892847],[-1.9808144772832394,53.72891687138878]]}},{"type":"Feature","properties":{"fid":30022,"id":"802A331A-2D37-4218-B28A-C6584F91B103","classifica":"Multi Track","feature_co":15300},"geometry":{"type":"LineString","coordinates":[[-1.9760319606606012,53.728494031405376],[-1.9748527772556697,53.72847662516069]]}},{"type":"Feature","properties":{"fid":33075,"id":"4DC281C5-63ED-42DF-AAAE-C26129746BC8","classifica":"Multi Track","feature_co":15300},"geometry":{"type":"LineString","coordinates":[[-1.9709480302209212,53.72858136045525],[-1.9729355941786229,53.72849068250976],[-1.9748527772556697,53.72847662516069]]}},{"type":"Feature","properties":{"fid":48942,"id":"3EA6C728-7FC5-4808-A952-641DEE938044","classifica":"Multi Track","feature_co":15300},"geometry":{"type":"LineString","coordinates":[[-1.9634410796853186,53.72870794110722],[-1.9668491451651358,53.72882900531866],[-1.9696059859716055,53.72867154031092]]}},{"type":"Feature","properties":{"fid":7201,"id":"6C30D411-2502-46EB-8249-3E7FA7DB149C","classifica":"Multi Track","feature_co":15300},"geometry":{"type":"LineString","coordinates":[[-1.9633477212970971,53.728699194377356],[-1.9634410796853186,53.72870794110722]]}},{"type":"Feature","properties":{"fid":27124,"id":"BEB8EE8E-B3E8-454F-A056-47E9FBB442FE","classifica":"Multi Track","feature_co":15300},"geometry":{"type":"LineString","coordinates":[[-1.9622912404265025,53.7285866080519],[-1.9633477212970971,53.728699194377356]]}},{"type":"Feature","properties":{"fid":90358,"id":"36D57740-DCE2-4E99-9774-39AF7250BB35","classifica":"Multi Track","feature_co":15300},"geometry":{"type":"LineString","coordinates":[[-2.008628115345704,53.737538387092265],[-2.010544654743547,53.73818455997469]]}},{"type":"Feature","properties":{"fid":92745,"id":"3CFD1E75-BCE2-44C9-B5D9-1D92FCD53884","classifica":"Multi Track","feature_co":15300},"geometry":{"type":"LineString","coordinates":[[-2.022774183765279,53.74055801374017],[-2.025455773339161,53.740392987166885]]}},{"type":"Feature","properties":{"fid":100849,"id":"AD4CA409-CF19-406F-A3F8-D75741BC0487","classifica":"Multi Track","feature_co":15300},"geometry":{"type":"LineString","coordinates":[[-1.9696059859716055,53.72867154031092],[-1.9709480302209212,53.72858136045525]]}},{"type":"Feature","properties":{"fid":104963,"id":"A980EBAC-ED76-4450-8E8C-7EE96E0E04F0","classifica":"Multi Track","feature_co":15300},"geometry":{"type":"LineString","coordinates":[[-1.9961407451325257,53.73327742863007],[-1.9984655731116174,53.73406267207974]]}},{"type":"Feature","properties":{"fid":105066,"id":"7380DA90-A416-42EC-8FAE-FAF31C9BB3F7","classifica":"Multi Track","feature_co":15300},"geometry":{"type":"LineString","coordinates":[[-1.9905428431829788,53.73136501126185],[-1.995212172143248,53.73296326471669]]}},{"type":"Feature","properties":{"fid":111154,"id":"32222075-2119-4B05-B21B-12078AE4D23C","classifica":"Multi Track","feature_co":15300},"geometry":{"type":"LineString","coordinates":[[-2.017967785707,53.74012633657713],[-2.0184375042871934,53.740201584007586]]}},{"type":"Feature","properties":{"fid":111409,"id":"68EF153D-2445-4A45-831E-33AEC9C47CB5","classifica":"Multi Track","feature_co":15300},"geometry":{"type":"LineString","coordinates":[[-1.9808144772832394,53.72891687138878],[-1.9792585671361007,53.72872040627331],[-1.9760319606606012,53.728494031405376]]}},{"type":"Feature","properties":{"fid":112680,"id":"DDD5F4B2-D8AB-42E1-8496-FF1468EAD06F","classifica":"Multi Track","feature_co":15300},"geometry":{"type":"LineString","coordinates":[[-1.9985774435651,53.73409907482311],[-1.9986899205153743,53.73413736495792]]}},{"type":"Feature","properties":{"fid":107368,"id":"DA22187A-744F-4760-887C-5F23C8F85A57","classifica":"Multi Track","feature_co":15300},"geometry":{"type":"LineString","coordinates":[[-2.131335963644024,53.731089532182665],[-2.1303457468944016,53.730269196287374]]}},{"type":"Feature","properties":{"fid":80253,"id":"B7F390BA-9447-4295-BEFB-3D36DCA80014","classifica":"Multi Track","feature_co":15300},"geometry":{"type":"LineString","coordinates":[[-2.129815650661854,53.72966613440343],[-2.129789318182281,53.72963030060211]]}},{"type":"Feature","properties":{"fid":8585,"id":"3677789F-47ED-483D-9E2B-C3F5AF79ACFB","classifica":"Multi Track","feature_co":15300},"geometry":{"type":"LineString","coordinates":[[-2.129789318182281,53.72963030060211],[-2.1294095773496626,53.72912010008907]]}},{"type":"Feature","properties":{"fid":37356,"id":"FD7D601D-1FC6-484F-A701-F95618764667","classifica":"Multi Track","feature_co":15300},"geometry":{"type":"LineString","coordinates":[[-2.1294095773496626,53.72912010008907],[-2.128951306834994,53.72870004345692],[-2.1280964393472064,53.72819484408996],[-2.1269708807649534,53.72778430099863],[-2.1260964304470633,53.7276084309108]]}},{"type":"Feature","properties":{"fid":85638,"id":"B24E7AE2-681C-41AC-B745-9BDAEE8F4290","classifica":"Multi Track","feature_co":15300},"geometry":{"type":"LineString","coordinates":[[-2.125743628453449,53.727570962618216],[-2.12514984381189,53.72753464452339]]}},{"type":"Feature","properties":{"fid":7393,"id":"13182214-BA32-4156-B610-24857D588D9E","classifica":"Multi Track","feature_co":15300},"geometry":{"type":"LineString","coordinates":[[-2.12514984381189,53.72753464452339],[-2.1242452029799117,53.7275496990779]]}},{"type":"Feature","properties":{"fid":64905,"id":"5C257105-3F3A-48FA-96B1-60C6E84437CE","classifica":"Multi Track","feature_co":15300},"geometry":{"type":"LineString","coordinates":[[-2.1242452029799117,53.7275496990779],[-2.1237791783788396,53.72756150731174]]}},{"type":"Feature","properties":{"fid":106526,"id":"0425FBA5-E64B-4C72-8ACF-9E049A9FE83B","classifica":"Multi Track","feature_co":15300},"geometry":{"type":"LineString","coordinates":[[-2.1237791783788396,53.72756150731174],[-2.121306074981368,53.7276552704817]]}},{"type":"Feature","properties":{"fid":79481,"id":"9DFB1198-79C7-40DC-8316-CA19A5B841A3","classifica":"Multi Track","feature_co":15300},"geometry":{"type":"LineString","coordinates":[[-2.121306074981368,53.7276552704817],[-2.1208884275160393,53.7276775344272]]}},{"type":"Feature","properties":{"fid":26127,"id":"A6520E02-0C59-4962-B694-2D38C74887E4","classifica":"Multi Track","feature_co":15300},"geometry":{"type":"LineString","coordinates":[[-2.1208884275160393,53.7276775344272],[-2.120197693440487,53.72771139669122]]}},{"type":"Feature","properties":{"fid":105140,"id":"4F2F343E-2F5B-4C62-8741-F3DE5E0447FE","classifica":"Multi Track","feature_co":15300},"geometry":{"type":"LineString","coordinates":[[-2.115784603587531,53.727662272347544],[-2.116191688539961,53.72771095230103]]}},{"type":"Feature","properties":{"fid":49979,"id":"2E2E1182-097A-4D52-95F2-8F9BBF8A7436","classifica":"Multi Track","feature_co":15300},"geometry":{"type":"LineString","coordinates":[[-2.110829929056417,53.725924361230376],[-2.1119961278433883,53.726591717117614],[-2.113109918905015,53.727032252371295],[-2.1144741262402196,53.72742067661472],[-2.115784603587531,53.727662272347544]]}},{"type":"Feature","properties":{"fid":90985,"id":"5D328031-07CB-4EF4-8375-655406FA8DA6","classifica":"Multi Track","feature_co":15300},"geometry":{"type":"LineString","coordinates":[[-2.110829929056417,53.725924361230376],[-2.110128030826518,53.7253333252506]]}},{"type":"Feature","properties":{"fid":3282,"id":"652EDB9D-064F-4574-9D55-033455EB06FA","classifica":"Multi Track","feature_co":15300},"geometry":{"type":"LineString","coordinates":[[-2.1100835243048417,53.725294897301985],[-2.1089672843950424,53.72417187183979]]}},{"type":"Feature","properties":{"fid":63734,"id":"96858E0E-3D31-4996-B43D-83C066A5ED50","classifica":"Multi Track","feature_co":15300},"geometry":{"type":"LineString","coordinates":[[-2.108833555241236,53.72403142022146],[-2.1075742077662594,53.72280469952584]]}},{"type":"Feature","properties":{"fid":97589,"id":"0C721316-F8F0-44EE-83C6-B6A9A37B1D40","classifica":"Multi Track","feature_co":15300},"geometry":{"type":"LineString","coordinates":[[-2.1014019291390715,53.720259998358145],[-2.103126527399645,53.72060905777966],[-2.1047167279350734,53.7211366234895],[-2.1063748096135955,53.7219439963246],[-2.1075742077662594,53.72280469952584]]}},{"type":"Feature","properties":{"fid":84207,"id":"4D002268-5B89-4DA0-B6E0-41857F422855","classifica":"Multi Track","feature_co":15300},"geometry":{"type":"LineString","coordinates":[[-2.0981033907740394,53.71973371324666],[-2.1011593859444817,53.72022559979165]]}},{"type":"Feature","properties":{"fid":77074,"id":"444021FD-DF2A-432A-9E6E-40F497988FC7","classifica":"Multi Track","feature_co":15300},"geometry":{"type":"LineString","coordinates":[[-2.097950414100246,53.71970067271976],[-2.0981033907740394,53.71973371324666]]}},{"type":"Feature","properties":{"fid":62576,"id":"E4A1B345-D788-4A04-A070-39B4A1B89110","classifica":"Multi Track","feature_co":15300},"geometry":{"type":"LineString","coordinates":[[-2.0948136222628846,53.71869204384974],[-2.096342694417308,53.71927037215177],[-2.097950414100246,53.71970067271976]]}},{"type":"Feature","properties":{"fid":64068,"id":"1ED58B67-0B70-45C5-B74E-B60F0E4481A9","classifica":"Multi Track","feature_co":15300},"geometry":{"type":"LineString","coordinates":[[-2.0942034894628754,53.71839277397538],[-2.0948136222628846,53.71869204384974]]}},{"type":"Feature","properties":{"fid":110041,"id":"5CC14983-D530-4A5C-BFFE-817AF67D4F25","classifica":"Multi Track","feature_co":15300},"geometry":{"type":"LineString","coordinates":[[-2.0941822439437,53.71837885920012],[-2.093773287593104,53.71805075641961]]}},{"type":"Feature","properties":{"fid":112766,"id":"6D2D7AA0-5C83-419B-9566-3079402FA56C","classifica":"Multi Track","feature_co":15300},"geometry":{"type":"LineString","coordinates":[[-2.1303457468944016,53.730269196287374],[-2.129815650661854,53.72966613440343]]}},{"type":"Feature","properties":{"fid":22023,"id":"BBB98784-E49A-4B20-B956-918D09D0BB8F","classifica":"Multi Track","feature_co":15300},"geometry":{"type":"LineString","coordinates":[[-2.172864677922769,53.74189979476312],[-2.17592256852154,53.742722149762365]]}},{"type":"Feature","properties":{"fid":68998,"id":"2EF59EE3-0A40-4DED-80B1-10D751C89127","classifica":"Multi Track","feature_co":15300},"geometry":{"type":"LineString","coordinates":[[-2.1672725466715552,53.740391007865604],[-2.1631909505498386,53.73927241780806],[-2.1616743042762754,53.73872620519559],[-2.1605689464102333,53.738207105379686]]}},{"type":"Feature","properties":{"fid":77650,"id":"EEC1EDC7-DC59-4FBD-A8F5-C400F8D391A8","classifica":"Multi Track","feature_co":15300},"geometry":{"type":"LineString","coordinates":[[-2.1605689464102333,53.738207105379686],[-2.1604607886336438,53.738150266192335]]}},{"type":"Feature","properties":{"fid":32139,"id":"DB911277-40E0-4744-AC03-8823E7F56224","classifica":"Multi Track","feature_co":15300},"geometry":{"type":"LineString","coordinates":[[-2.1604607886336438,53.738150266192335],[-2.1599662627694607,53.73787139978136]]}},{"type":"Feature","properties":{"fid":73979,"id":"9AEBB293-5FFA-4945-B98C-778C21B91D1E","classifica":"Multi Track","feature_co":15300},"geometry":{"type":"LineString","coordinates":[[-2.1599662627694607,53.73787139978136],[-2.1596521646359994,53.737676868333736]]}},{"type":"Feature","properties":{"fid":64853,"id":"15B8E145-F94A-4A06-8280-2C88D6A7B653","classifica":"Multi Track","feature_co":15300},"geometry":{"type":"LineString","coordinates":[[-2.159605824731593,53.73765005586461],[-2.158396633687016,53.73671726424057],[-2.1562946564243055,53.73465484203637]]}},{"type":"Feature","properties":{"fid":18996,"id":"C0918040-9469-4C06-AB14-ABEB9DD1DC63","classifica":"Multi Track","feature_co":15300},"geometry":{"type":"LineString","coordinates":[[-2.153472959769472,53.73299102956147],[-2.1541031110567763,53.733244222224755],[-2.1552631255069374,53.733843394694595],[-2.1562946564243055,53.73465484203637]]}},{"type":"Feature","properties":{"fid":26563,"id":"60FB0A25-E288-47DC-A4A0-9C319E88431B","classifica":"Multi Track","feature_co":15300},"geometry":{"type":"LineString","coordinates":[[-2.1483321338306514,53.73225509976287],[-2.1497537014053485,53.732266631100565],[-2.1510045533059836,53.732394756593266],[-2.152303171832162,53.73265142742035],[-2.153472959769472,53.73299102956147]]}},{"type":"Feature","properties":{"fid":46791,"id":"33959F33-F587-4583-B981-73738AC43349","classifica":"Multi Track","feature_co":15300},"geometry":{"type":"LineString","coordinates":[[-2.1483321338306514,53.73225509976287],[-2.148073591265301,53.7322706098712],[-2.147340699007271,53.73231447768509]]}},{"type":"Feature","properties":{"fid":17718,"id":"FC1B1476-EC48-478B-B19E-924AADB15614","classifica":"Multi Track","feature_co":15300},"geometry":{"type":"LineString","coordinates":[[-2.147340699007271,53.73231447768509],[-2.1460867601416798,53.732428366263086]]}},{"type":"Feature","properties":{"fid":61301,"id":"59AB7390-C18A-47D0-89CD-DAC09AFA1319","classifica":"Multi Track","feature_co":15300},"geometry":{"type":"LineString","coordinates":[[-2.145440460936946,53.73248514937027],[-2.1425022925338046,53.73273639640221]]}},{"type":"Feature","properties":{"fid":20859,"id":"7DD2C721-2201-4DB9-B397-324A5ED0788F","classifica":"Multi Track","feature_co":15300},"geometry":{"type":"LineString","coordinates":[[-2.1415777572904937,53.73281685874919],[-2.1413336275233905,53.73283781997182]]}},{"type":"Feature","properties":{"fid":59083,"id":"040CC30B-4EDB-40E4-B72F-B8C20480C2B2","classifica":"Multi Track","feature_co":15300},"geometry":{"type":"LineString","coordinates":[[-2.140951447682303,53.73287143684383],[-2.1391955998661976,53.73299078706342]]}},{"type":"Feature","properties":{"fid":66567,"id":"8DBF9689-6A2B-479B-A981-D7BE46D2A2BF","classifica":"Multi Track","feature_co":15300},"geometry":{"type":"LineString","coordinates":[[-2.1391955998661976,53.73299078706342],[-2.137759350813745,53.732946251085544],[-2.135971668538206,53.73274058244078]]}},{"type":"Feature","properties":{"fid":72657,"id":"02AD5143-B1DF-4388-8E02-42451B2323A4","classifica":"Multi Track","feature_co":15300},"geometry":{"type":"LineString","coordinates":[[-2.135971668538206,53.73274058244078],[-2.1355536757749776,53.73266897260744]]}},{"type":"Feature","properties":{"fid":41797,"id":"EAB6BF68-D1CF-4EE2-937D-AF0871F6875C","classifica":"Multi Track","feature_co":15300},"geometry":{"type":"LineString","coordinates":[[-2.1354778387884754,53.732654767508095],[-2.1338629799492197,53.73225760559639]]}},{"type":"Feature","properties":{"fid":17999,"id":"47D09FEC-C24F-4575-8ED9-DBD6C7BAEC99","classifica":"Multi Track","feature_co":15300},"geometry":{"type":"LineString","coordinates":[[-2.1327725802677837,53.7318488754506],[-2.1323625756547053,53.73166192877784]]}},{"type":"Feature","properties":{"fid":67398,"id":"7F3121C6-0E7D-4997-805F-63F497F6C9E9","classifica":"Multi Track","feature_co":15300},"geometry":{"type":"LineString","coordinates":[[-2.1323625756547053,53.73166192877784],[-2.131937162416746,53.73144219126786]]}},{"type":"Feature","properties":{"fid":52084,"id":"70B17B81-B0B9-46BC-BF86-5479BC6BCD34","classifica":"Multi Track","feature_co":15300},"geometry":{"type":"LineString","coordinates":[[-2.131937162416746,53.73144219126786],[-2.1318767252115776,53.73140738423683]]}},{"type":"Feature","properties":{"fid":18876,"id":"CBF58BD8-7552-4E3A-AA73-C15BCC063807","classifica":"Multi Track","feature_co":15300},"geometry":{"type":"LineString","coordinates":[[-2.1318767252115776,53.73140738423683],[-2.131335963644024,53.731089532182665]]}},{"type":"Feature","properties":{"fid":79809,"id":"29B28873-5032-4F6A-A000-03843F2FFB07","classifica":"Multi Track","feature_co":15300},"geometry":{"type":"LineString","coordinates":[[-2.1460867601416798,53.732428366263086],[-2.145440460936946,53.73248514937027]]}},{"type":"Feature","properties":{"fid":89269,"id":"717073BC-115F-4FA4-9275-205AD78CCA5C","classifica":"Multi Track","feature_co":15300},"geometry":{"type":"LineString","coordinates":[[-2.1413336275233905,53.73283781997182],[-2.140951447682303,53.73287143684383]]}},{"type":"Feature","properties":{"fid":93438,"id":"B967F352-DA0A-4358-8F8E-B2F9FFC6419D","classifica":"Multi Track","feature_co":15300},"geometry":{"type":"LineString","coordinates":[[-2.1425022925338046,53.73273639640221],[-2.1415777572904937,53.73281685874919]]}},{"type":"Feature","properties":{"fid":99555,"id":"8F4221FE-4637-4E84-8CDA-F7B7461A30F7","classifica":"Multi Track","feature_co":15300},"geometry":{"type":"LineString","coordinates":[[-2.1672725466715552,53.740391007865604],[-2.1725572071740915,53.74182734538404]]}},{"type":"Feature","properties":{"fid":101060,"id":"024866A7-41F6-41E9-9597-AF45A5A69A12","classifica":"Multi Track","feature_co":15300},"geometry":{"type":"LineString","coordinates":[[-2.1355536757749776,53.73266897260744],[-2.1354778387884754,53.732654767508095]]}},{"type":"Feature","properties":{"fid":110071,"id":"5512A8B8-BD9E-49B7-9530-CE2133163F76","classifica":"Multi Track","feature_co":15300},"geometry":{"type":"LineString","coordinates":[[-2.1338629799492197,53.73225760559639],[-2.1327725802677837,53.7318488754506]]}},{"type":"Feature","properties":{"fid":20590,"id":"C642D860-A515-458C-B2DD-07B0F2A8EF6D","classifica":"Multi Track","feature_co":15300},"geometry":{"type":"LineString","coordinates":[[-1.9619935988352881,53.728544989841645],[-1.9620470952349351,53.72855273641012]]}},{"type":"Feature","properties":{"fid":29350,"id":"77FB74AB-19EB-4457-AB6D-F3B1BA58FA0E","classifica":"Multi Track","feature_co":15300},"geometry":{"type":"LineString","coordinates":[[-1.9594917978970197,53.72809791857623],[-1.9619935988352881,53.728544989841645]]}},{"type":"Feature","properties":{"fid":59314,"id":"6BE2AB88-B529-4C0E-A078-469B1AEC8021","classifica":"Multi Track","feature_co":15300},"geometry":{"type":"LineString","coordinates":[[-1.959138264569175,53.72802535555648],[-1.9594917978970197,53.72809791857623]]}},{"type":"Feature","properties":{"fid":21797,"id":"06F21FD3-C6F6-4FEE-BE0D-B544D22CE285","classifica":"Multi Track","feature_co":15300},"geometry":{"type":"LineString","coordinates":[[-1.9588436850029303,53.72795937290899],[-1.959138264569175,53.72802535555648]]}},{"type":"Feature","properties":{"fid":67121,"id":"1A0B8580-1389-4D1A-8D10-71B16020B152","classifica":"Multi Track","feature_co":15300},"geometry":{"type":"LineString","coordinates":[[-1.9588436850029303,53.72795937290899],[-1.958053764480937,53.72776738540624]]}},{"type":"Feature","properties":{"fid":88674,"id":"5571A972-7F86-4592-961C-CE00725618D3","classifica":"Multi Track","feature_co":15300},"geometry":{"type":"LineString","coordinates":[[-1.958053764480937,53.72776738540624],[-1.9560095082254256,53.72713632412251],[-1.954602723329356,53.726553735576154],[-1.9519245895807587,53.72527279657677],[-1.95104008289386,53.724771805129535],[-1.949855757220976,53.72394567416108]]}},{"type":"Feature","properties":{"fid":81603,"id":"8159A6EC-1FCD-4257-9676-DC3D054FDD83","classifica":"Multi Track","feature_co":15300},"geometry":{"type":"LineString","coordinates":[[-1.949855757220976,53.72394567416108],[-1.948295042985581,53.72261442063661],[-1.947963119372932,53.72225498136008]]}},{"type":"Feature","properties":{"fid":55267,"id":"576C8833-5798-419E-B780-F190D2975B6E","classifica":"Multi Track","feature_co":15300},"geometry":{"type":"LineString","coordinates":[[-2.076201521255755,53.7180976819685],[-2.0741338603179815,53.718335729504126],[-2.0718820815356853,53.71849484714053]]}},{"type":"Feature","properties":{"fid":85629,"id":"B0370D6B-AC4F-4BB5-80A9-0607CEF29FAE","classifica":"Multi Track","feature_co":15300},"geometry":{"type":"LineString","coordinates":[[-2.0700385418075795,53.71858043081634],[-2.0718820815356853,53.71849484714053]]}},{"type":"Feature","properties":{"fid":55067,"id":"4217A274-99B4-43BF-A309-E40EC53C4EBB","classifica":"Multi Track","feature_co":15300},"geometry":{"type":"LineString","coordinates":[[-2.0674356853102753,53.71886568317081],[-2.0700385418075795,53.71858043081634]]}},{"type":"Feature","properties":{"fid":16497,"id":"12FC9C99-CD88-42F1-BFDF-6958B4D6D55D","classifica":"Multi Track","feature_co":15300},"geometry":{"type":"LineString","coordinates":[[-2.0620869302010116,53.72033175433701],[-2.063889710043475,53.71968986317995]]}},{"type":"Feature","properties":{"fid":100805,"id":"423436D3-9310-4935-A92B-5968803E2DC3","classifica":"Multi Track","feature_co":15300},"geometry":{"type":"LineString","coordinates":[[-2.0615961077477523,53.720544486774216],[-2.0620869302010116,53.72033175433701]]}},{"type":"Feature","properties":{"fid":14138,"id":"58BE43A0-196A-4999-AFE6-EC016035CF01","classifica":"Multi Track","feature_co":15300},"geometry":{"type":"LineString","coordinates":[[-2.0615961077477523,53.720544486774216],[-2.06103913068457,53.720807494381646]]}},{"type":"Feature","properties":{"fid":23652,"id":"2C9C45C6-A69F-4118-ADF7-DFBF4D0BEE4A","classifica":"Multi Track","feature_co":15300},"geometry":{"type":"LineString","coordinates":[[-2.0593344589357776,53.72177097684763],[-2.06103913068457,53.720807494381646]]}},{"type":"Feature","properties":{"fid":96069,"id":"A29DB39B-0B86-4144-A30D-5AF5A4827A04","classifica":"Multi Track","feature_co":15300},"geometry":{"type":"LineString","coordinates":[[-2.0592219625204073,53.72184194862716],[-2.0593344589357776,53.72177097684763]]}},{"type":"Feature","properties":{"fid":2407,"id":"ADFC8D18-6B2A-4FCE-BD8E-4DDE90593C18","classifica":"Multi Track","feature_co":15300},"geometry":{"type":"LineString","coordinates":[[-2.0587408104212575,53.72216548742243],[-2.0592219625204073,53.72184194862716]]}},{"type":"Feature","properties":{"fid":46081,"id":"2CC73C87-081B-4ED0-BF6D-2EB79FAD4C1E","classifica":"Multi Track","feature_co":15300},"geometry":{"type":"LineString","coordinates":[[-2.058712199953368,53.722187971683425],[-2.0587408104212575,53.72216548742243]]}},{"type":"Feature","properties":{"fid":72617,"id":"1CB02045-56E0-41E9-A8B2-578D228FEB45","classifica":"Multi Track","feature_co":15300},"geometry":{"type":"LineString","coordinates":[[-2.057512958602948,53.72324366541664],[-2.058712199953368,53.722187971683425]]}},{"type":"Feature","properties":{"fid":25490,"id":"90677A15-B437-40A5-99DD-65E63BF4958E","classifica":"Multi Track","feature_co":15300},"geometry":{"type":"LineString","coordinates":[[-2.057404446977168,53.723352293558996],[-2.057512958602948,53.72324366541664]]}},{"type":"Feature","properties":{"fid":79277,"id":"035EB19E-1C4A-45AC-AF5D-A4B8D2FA42F6","classifica":"Multi Track","feature_co":15300},"geometry":{"type":"LineString","coordinates":[[-2.0570430497028274,53.72372106762555],[-2.057404446977168,53.723352293558996]]}},{"type":"Feature","properties":{"fid":96271,"id":"20FF861C-1E0D-4EB4-85CE-0FEE54965A40","classifica":"Multi Track","feature_co":15300},"geometry":{"type":"LineString","coordinates":[[-2.056534502947941,53.72432467873972],[-2.0570430497028274,53.72372106762555]]}},{"type":"Feature","properties":{"fid":59,"id":"CFEE3D45-2F9B-4149-B41B-0F9C2462DB5E","classifica":"Multi Track","feature_co":15300},"geometry":{"type":"LineString","coordinates":[[-2.056211811999473,53.72475023646738],[-2.0564166526050656,53.724480048342635],[-2.056534502947941,53.72432467873972]]}},{"type":"Feature","properties":{"fid":4192,"id":"DD55CE47-3FE7-4EB0-8B5B-DD5F855B7DA2","classifica":"Multi Track","feature_co":15300},"geometry":{"type":"LineString","coordinates":[[-2.056211811999473,53.72475023646738],[-2.055342541013656,53.7261606008469],[-2.0544702048048302,53.72723948021855]]}},{"type":"Feature","properties":{"fid":23903,"id":"6E1AD861-618A-42E3-8BBB-ADFEB5511F89","classifica":"Multi Track","feature_co":15300},"geometry":{"type":"LineString","coordinates":[[-2.054225783912803,53.72751255906817],[-2.0544702048048302,53.72723948021855]]}},{"type":"Feature","properties":{"fid":90630,"id":"3EFC468B-11A4-4ABC-BBD5-E050F4CBDAC2","classifica":"Multi Track","feature_co":15300},"geometry":{"type":"LineString","coordinates":[[-2.054225783912803,53.72751255906817],[-2.0541346615869354,53.727604817986254]]}},{"type":"Feature","properties":{"fid":35455,"id":"7696BD4C-BC5A-406F-BD6F-703681718FD3","classifica":"Multi Track","feature_co":15300},"geometry":{"type":"LineString","coordinates":[[-2.0541108932831778,53.72762595071946],[-2.0541346615869354,53.727604817986254]]}},{"type":"Feature","properties":{"fid":111548,"id":"3782B1AE-7CB1-4A93-BCB8-A7C4FF86AB6E","classifica":"Multi Track","feature_co":15300},"geometry":{"type":"LineString","coordinates":[[-2.0530259394608406,53.72853962513782],[-2.0541108932831778,53.72762595071946]]}},{"type":"Feature","properties":{"fid":70232,"id":"07614F4F-04D2-421D-8363-4911A5986815","classifica":"Multi Track","feature_co":15300},"geometry":{"type":"LineString","coordinates":[[-2.0530259394608406,53.72853962513782],[-2.0482542518129607,53.7324545130177]]}},{"type":"Feature","properties":{"fid":106533,"id":"A564EC6D-0FB1-4BEB-9F74-9CAEF3AF8B7E","classifica":"Multi Track","feature_co":15300},"geometry":{"type":"LineString","coordinates":[[-2.047815668979879,53.732802797119454],[-2.0482542518129607,53.7324545130177]]}},{"type":"Feature","properties":{"fid":3287,"id":"DAAA0278-E071-4E76-91FA-5A7F65E65DD1","classifica":"Multi Track","feature_co":15300},"geometry":{"type":"LineString","coordinates":[[-2.047815668979879,53.732802797119454],[-2.0475503263889037,53.73300594341556],[-2.0469825269656643,53.73344056122778],[-2.0457287392734407,53.73424889510001],[-2.0445423277695007,53.73488300214095],[-2.0442485600745357,53.73504004297328],[-2.0422899433561748,53.73587853053283]]}},{"type":"Feature","properties":{"fid":73374,"id":"BC7C128C-E310-470F-8891-F8B048250DAC","classifica":"Multi Track","feature_co":15300},"geometry":{"type":"LineString","coordinates":[[-2.0422012979259687,53.73591523321495],[-2.0422899433561748,53.73587853053283]]}},{"type":"Feature","properties":{"fid":42702,"id":"DA509B72-68C4-499A-93AE-90B6F84E2650","classifica":"Multi Track","feature_co":15300},"geometry":{"type":"LineString","coordinates":[[-2.0406649702186135,53.73646331963985],[-2.0422012979259687,53.73591523321495]]}},{"type":"Feature","properties":{"fid":83908,"id":"AE82DFF1-D125-40E2-8947-C03ACFC41CB3","classifica":"Multi Track","feature_co":15300},"geometry":{"type":"LineString","coordinates":[[-2.0404908383909786,53.73651703762621],[-2.0406649702186135,53.73646331963985]]}},{"type":"Feature","properties":{"fid":78065,"id":"AB558F72-5BF9-45DB-A834-49860CE75634","classifica":"Multi Track","feature_co":15300},"geometry":{"type":"LineString","coordinates":[[-2.0396084106413297,53.73669161268703],[-2.0404908383909786,53.73651703762621]]}},{"type":"Feature","properties":{"fid":68941,"id":"64CC9ECF-5B54-4BBF-8ACE-A1C724D874B7","classifica":"Multi Track","feature_co":15300},"geometry":{"type":"LineString","coordinates":[[-2.033676460567548,53.7380498254261],[-2.035303574866865,53.73747951148831],[-2.036217515388515,53.737242401754195],[-2.0396084106413297,53.73669161268703]]}},{"type":"Feature","properties":{"fid":22678,"id":"78BCC68E-FFB0-4653-91AE-4A57F928C429","classifica":"Multi Track","feature_co":15300},"geometry":{"type":"LineString","coordinates":[[-2.033676460567548,53.7380498254261],[-2.0312183169623936,53.73896547929131]]}},{"type":"Feature","properties":{"fid":91333,"id":"00A0D740-676A-46EA-BFA8-4F829610402D","classifica":"Multi Track","feature_co":15300},"geometry":{"type":"LineString","coordinates":[[-2.0312183169623936,53.73896547929131],[-2.0306829919218847,53.73916119854793],[-2.0298319483526193,53.73947249145875]]}},{"type":"Feature","properties":{"fid":60379,"id":"15DB3853-8DF2-4115-849A-125B9A868E39","classifica":"Multi Track","feature_co":15300},"geometry":{"type":"LineString","coordinates":[[-2.0298319483526193,53.73947249145875],[-2.0278009279923146,53.74001181741034],[-2.025696063054047,53.74037298191213]]}},{"type":"Feature","properties":{"fid":1498,"id":"33E3A59D-C5AF-4A8C-8A2D-39361573274C","classifica":"Multi Track","feature_co":15300},"geometry":{"type":"LineString","coordinates":[[-2.103243139729875,53.71132112130658],[-2.1031418870379914,53.711425560457755]]}},{"type":"Feature","properties":{"fid":33979,"id":"9FAA4091-BE14-4518-9020-0FDCD0453A7F","classifica":"Multi Track","feature_co":15300},"geometry":{"type":"LineString","coordinates":[[-2.1031418870379914,53.711425560457755],[-2.1021584935419164,53.712312091417935]]}},{"type":"Feature","properties":{"fid":43458,"id":"F3F15F98-E4FC-45F1-8254-B43918EC857D","classifica":"Multi Track","feature_co":15300},"geometry":{"type":"LineString","coordinates":[[-2.1011168463631544,53.71305943798804],[-2.1021584935419164,53.712312091417935]]}},{"type":"Feature","properties":{"fid":77484,"id":"118C2C86-1F96-4E6B-A960-A5D5B3718482","classifica":"Multi Track","feature_co":15300},"geometry":{"type":"LineString","coordinates":[[-2.100263846038007,53.71357274726669],[-2.1011168463631544,53.71305943798804]]}},{"type":"Feature","properties":{"fid":38676,"id":"02E3D3B1-FCCF-4509-A3DC-38985FEC48BD","classifica":"Multi Track","feature_co":15300},"geometry":{"type":"LineString","coordinates":[[-2.100263846038007,53.71357274726669],[-2.098902551710817,53.714241067234965]]}},{"type":"Feature","properties":{"fid":100609,"id":"104A34A6-E9D1-4B27-88BE-67BBFBCFA54E","classifica":"Multi Track","feature_co":15300},"geometry":{"type":"LineString","coordinates":[[-2.098902551710817,53.714241067234965],[-2.098012176171688,53.71460249265645]]}},{"type":"Feature","properties":{"fid":104076,"id":"DB1D61F4-67A6-4D4C-BC43-8F5C702DD29E","classifica":"Multi Track","feature_co":15300},"geometry":{"type":"LineString","coordinates":[[-2.098012176171688,53.71460249265645],[-2.0959344479219504,53.715279902889776]]}},{"type":"Feature","properties":{"fid":7612,"id":"8A0CECD5-41D5-404F-9A04-CE090EAAB6C4","classifica":"Multi Track","feature_co":15300},"geometry":{"type":"LineString","coordinates":[[-2.0959344479219504,53.715279902889776],[-2.095470004675096,53.715398018747656]]}},{"type":"Feature","properties":{"fid":84173,"id":"28159202-137A-485F-A43E-335B371CD853","classifica":"Multi Track","feature_co":15300},"geometry":{"type":"LineString","coordinates":[[-2.095470004675096,53.715398018747656],[-2.0951718206489747,53.715468453539344]]}},{"type":"Feature","properties":{"fid":46084,"id":"73B6083F-247F-400A-999F-132FA085CD07","classifica":"Multi Track","feature_co":15300},"geometry":{"type":"LineString","coordinates":[[-2.0951718206489747,53.715468453539344],[-2.0928919418676664,53.71597151304022],[-2.091094786593989,53.71627489626544]]}},{"type":"Feature","properties":{"fid":104503,"id":"8FE7EE48-95C7-4E4D-8083-24E4A68CED41","classifica":"Single Track","feature_co":15301},"geometry":{"type":"LineString","coordinates":[[-2.093773287593104,53.71805075641961],[-2.0933394862389303,53.717449344125356],[-2.09327821392786,53.71694641898381],[-2.09334995300501,53.716703774650455],[-2.09349362551004,53.71644327760033],[-2.09396768793428,53.716011298036335],[-2.0951718206489747,53.715468453539344]]}},{"type":"Feature","properties":{"fid":66415,"id":"683F557A-43D7-497E-A86D-BD15179DFF76","classifica":"Multi Track","feature_co":15300},"geometry":{"type":"LineString","coordinates":[[-2.091094786593989,53.71627489626544],[-2.0898470441112,53.71644149141669]]}},{"type":"Feature","properties":{"fid":95730,"id":"3760085E-4A61-4DC2-A867-706C221AC647","classifica":"Multi Track","feature_co":15300},"geometry":{"type":"LineString","coordinates":[[-2.086321697361114,53.716889719688105],[-2.0896099772026697,53.71647348726609]]}},{"type":"Feature","properties":{"fid":4141,"id":"9C8E8453-1B48-4829-82B0-7C6280F9E7E0","classifica":"Multi Track","feature_co":15300},"geometry":{"type":"LineString","coordinates":[[-2.0898977150709026,53.71654131088522],[-2.090844641112842,53.71656450294639],[-2.0918379059152663,53.7167826033987]]}},{"type":"Feature","properties":{"fid":56407,"id":"F08B9F19-B294-45A4-8591-D9EF61A0E47B","classifica":"Multi Track","feature_co":15300},"geometry":{"type":"LineString","coordinates":[[-2.08691954155239,53.71685297435983],[-2.08810781827455,53.71678720996893],[-2.0896559300685666,53.71656378300862]]}},{"type":"Feature","properties":{"fid":667,"id":"B587C790-C8A6-4351-A4D4-1BB26CB12357","classifica":"Multi Track","feature_co":15300},"geometry":{"type":"LineString","coordinates":[[-2.093773287593104,53.71805075641961],[-2.0928827370200227,53.71729186935184],[-2.0918379059152663,53.7167826033987]]}},{"type":"Feature","properties":{"fid":113346,"id":"D468095C-1B04-4CBF-A6E9-7A746BAB7F83","classifica":"Multi Track","feature_co":15300},"geometry":{"type":"LineString","coordinates":[[-2.086321697361114,53.716889719688105],[-2.08691954155239,53.71685297435983]]}},{"type":"Feature","properties":{"fid":7336,"id":"CBBEE86B-F0DB-45B7-8BAC-068F2D50220A","classifica":"Multi Track","feature_co":15300},"geometry":{"type":"LineString","coordinates":[[-2.0854507853141557,53.71699245042136],[-2.086321697361114,53.716889719688105]]}},{"type":"Feature","properties":{"fid":15547,"id":"9FEA8771-9D48-435B-9856-E25C7068F23F","classifica":"Multi Track","feature_co":15300},"geometry":{"type":"LineString","coordinates":[[-2.0788513438184846,53.717784255215754],[-2.0824017412578573,53.7173595985704]]}}]}